{"type":"FeatureCollection","crs":{"type":"name","properties":{"name":"EPSG:7844"}},"features":[{"type":"Feature","id":2,"geometry":{"type":"Point","coordinates":[142.12631671300005,-38.28680770899996]},"properties":{"objectid":2,"feature_type":"Power Station","feature_subtype":"Renewable","feature_name":"Ryan Corner Wind Farm","feature_description":"A facility used for the generation of electrical power for distribution","status":"Operational","owner":"Ryan Corner Development Pty Ltd","primary_fuel_type":"Wind","primary_fuel_type_descriptor":null,"technology_type":"Turbine - Wind","generation_capacity_mw":205,"number_of_units":52,"locality":"PORT FAIRY","state":"VIC","feature_source":"Esri World Imagery","feature_source_date":1774483200000,"attribute_source":"Aemo","attribute_source_date":1769731200000,"spatial_confidence":5,"latitude":-38.28680771,"longitude":142.12631671,"created_date":1774483200000,"last_edited_on":1776124800000,"globalid":"{47244EFB-02AF-4BA3-8343-769B92ACA4C6}"}},{"type":"Feature","id":3,"geometry":{"type":"Point","coordinates":[145.38206733900006,-17.55761311499998]},"properties":{"objectid":3,"feature_type":"Power Station","feature_subtype":"Renewable","feature_name":"Kaban Wind Farm","feature_description":"A facility used for the generation of electrical power for distribution","status":"Operational","owner":"Kaban Wind Farm Trust","primary_fuel_type":"Wind","primary_fuel_type_descriptor":null,"technology_type":"Turbine - Wind","generation_capacity_mw":152,"number_of_units":28,"locality":"TUMOULIN","state":"QLD","feature_source":"Esri World Imagery","feature_source_date":1774483200000,"attribute_source":"Aemo","attribute_source_date":1769731200000,"spatial_confidence":5,"latitude":-17.55761312,"longitude":145.38206734,"created_date":1774483200000,"last_edited_on":1776124800000,"globalid":"{E4BDF5F5-C073-487E-A0EE-C09DE5FC034B}"}},{"type":"Feature","id":10,"geometry":{"type":"Point","coordinates":[145.38203909300012,-17.182366844999933]},"properties":{"objectid":10,"feature_type":"Power Station","feature_subtype":"Renewable","feature_name":"Mount Emerald Wind Farm","feature_description":"A facility used for the generation of electrical power for distribution","status":"Operational","owner":"Ratch Australia","primary_fuel_type":"Wind","primary_fuel_type_descriptor":null,"technology_type":"Turbine - Wind","generation_capacity_mw":178.2,"number_of_units":53,"locality":"MUTCHILBA","state":"QLD","feature_source":"Esri World Imagery","feature_source_date":1774483200000,"attribute_source":"Aemo","attribute_source_date":1769731200000,"spatial_confidence":5,"latitude":-17.18236684,"longitude":145.38203909,"created_date":1774483200000,"last_edited_on":1776124800000,"globalid":"{E0A81862-89AD-45F7-87DC-97E09FF29E7B}"}},{"type":"Feature","id":13,"geometry":{"type":"Point","coordinates":[151.61405475800007,-28.432027734999963]},"properties":{"objectid":13,"feature_type":"Power Station","feature_subtype":"Renewable","feature_name":"Macintyre Wind Farm","feature_description":"A facility used for the generation of electrical power for distribution","status":"Under Construction","owner":"Macintyre Windfarm Pty Ltd And Arc Energy Macintyre Pty Ltd","primary_fuel_type":"Wind","primary_fuel_type_descriptor":null,"technology_type":"Turbine - Wind","generation_capacity_mw":890,"number_of_units":162,"locality":"CEMENT MILLS","state":"QLD","feature_source":"Esri World Imagery","feature_source_date":1774483200000,"attribute_source":"Aemo","attribute_source_date":1769731200000,"spatial_confidence":5,"latitude":-28.43202774,"longitude":151.61405476000002,"created_date":1774483200000,"last_edited_on":1776124800000,"globalid":"{6235A77D-3F74-446C-A2CF-2112BF1A62A4}"}},{"type":"Feature","id":18,"geometry":{"type":"Point","coordinates":[145.06522726000003,-41.77830894199997]},"properties":{"objectid":18,"feature_type":"Power Station","feature_subtype":"Renewable","feature_name":"Granville Harbour Wind Farm","feature_description":"A facility used for the generation of electrical power for distribution","status":"Operational","owner":"Granville Harbour Operations Pty Ltd As Trustee For Granville Harbour Operations Trust","primary_fuel_type":"Wind","primary_fuel_type_descriptor":null,"technology_type":"Turbine - Wind","generation_capacity_mw":111,"number_of_units":31,"locality":"GRANVILLE HARBOUR","state":"TAS","feature_source":"Esri World Imagery","feature_source_date":1774483200000,"attribute_source":"Aemo","attribute_source_date":1769731200000,"spatial_confidence":5,"latitude":-41.77830894,"longitude":145.06522726,"created_date":1774483200000,"last_edited_on":1776124800000,"globalid":"{B1B7D852-94AE-4FD1-9A03-78C0F234490F}"}},{"type":"Feature","id":19,"geometry":{"type":"Point","coordinates":[143.77798024300012,-37.97009282799996]},"properties":{"objectid":19,"feature_type":"Power Station","feature_subtype":"Renewable","feature_name":"Golden Plains Wind Farm - East","feature_description":"A facility used for the generation of electrical power for distribution","status":"Under Construction","owner":"Golden Plains Wf1 Pty Ltd As Trustee For The Golden Plains Wf1 Unit Trust","primary_fuel_type":"Wind","primary_fuel_type_descriptor":null,"technology_type":"Turbine - Wind","generation_capacity_mw":733,"number_of_units":122,"locality":"ROKEWOOD","state":"VIC","feature_source":"Esri World Imagery","feature_source_date":1774483200000,"attribute_source":"Aemo","attribute_source_date":1769731200000,"spatial_confidence":5,"latitude":-37.97009283,"longitude":143.77798023999998,"created_date":1774483200000,"last_edited_on":1776124800000,"globalid":"{43BDA84D-6482-42D7-9BC1-9BC8507409EB}"}},{"type":"Feature","id":36,"geometry":{"type":"Point","coordinates":[141.95473509300007,-38.28350287999996]},"properties":{"objectid":36,"feature_type":"Power Station","feature_subtype":"Renewable","feature_name":"Codrington Wind Farm","feature_description":"A facility used for the generation of electrical power for distribution","status":"Operational","owner":"Energy Pacific (Victoria) Pty Ltd","primary_fuel_type":"Wind","primary_fuel_type_descriptor":null,"technology_type":"Turbine - Wind","generation_capacity_mw":18.2,"number_of_units":14,"locality":"CODRINGTON","state":"VIC","feature_source":"Esri World Imagery","feature_source_date":null,"attribute_source":"Aemo-Australian Energy Market Operators 2016","attribute_source_date":1479254400000,"spatial_confidence":3,"latitude":-38.28350287999999,"longitude":141.95473509,"created_date":1361145600000,"last_edited_on":1769040000000,"globalid":"{B02D2C8F-A821-45B1-B422-DD6BDEF0DBDF}"}},{"type":"Feature","id":37,"geometry":{"type":"Point","coordinates":[142.01513735000003,-38.30792513799997]},"properties":{"objectid":37,"feature_type":"Power Station","feature_subtype":"Renewable","feature_name":"Yambuk Wind Farm","feature_description":"A facility used for the generation of electrical power for distribution","status":"Operational","owner":"Energy Pacific (Victoria) Pty Ltd","primary_fuel_type":"Wind","primary_fuel_type_descriptor":null,"technology_type":"Turbine - Wind","generation_capacity_mw":30,"number_of_units":20,"locality":"YAMBUK","state":"VIC","feature_source":"Esri World Imagery","feature_source_date":null,"attribute_source":"Aemo-Australian Energy Market Operators 2016","attribute_source_date":1479254400000,"spatial_confidence":3,"latitude":-38.307925139999995,"longitude":142.01513735,"created_date":1361145600000,"last_edited_on":1769040000000,"globalid":"{27545707-5AF3-4093-B14D-B97EB437F563}"}},{"type":"Feature","id":38,"geometry":{"type":"Point","coordinates":[142.1864845780001,-38.006433716999936]},"properties":{"objectid":38,"feature_type":"Power Station","feature_subtype":"Renewable","feature_name":"Macarthur Wind Farm","feature_description":"A facility used for the generation of electrical power for distribution","status":"Operational","owner":"Agl Energy Pty Ltd","primary_fuel_type":"Wind","primary_fuel_type_descriptor":null,"technology_type":"Turbine - Wind","generation_capacity_mw":420,"number_of_units":140,"locality":"GERRIGERRUP","state":"VIC","feature_source":"Esri World Imagery","feature_source_date":null,"attribute_source":"Aemo-Australian Energy Market Operators 2016","attribute_source_date":1479254400000,"spatial_confidence":5,"latitude":-38.00643372,"longitude":142.18648457999998,"created_date":1516060800000,"last_edited_on":1769040000000,"globalid":"{17ADA84F-E994-41C1-99B1-DF901201CB72}"}},{"type":"Feature","id":40,"geometry":{"type":"Point","coordinates":[143.889199877,-37.83168657799996]},"properties":{"objectid":40,"feature_type":"Power Station","feature_subtype":"Renewable","feature_name":"Mt Mercer Wind Farm","feature_description":"A facility used for the generation of electrical power for distribution","status":"Operational","owner":null,"primary_fuel_type":"Wind","primary_fuel_type_descriptor":null,"technology_type":"Turbine - Wind","generation_capacity_mw":131,"number_of_units":null,"locality":"MOUNT MERCER","state":"VIC","feature_source":"Esri World Imagery","feature_source_date":null,"attribute_source":"Aemo-Australian Energy Market Operators 2016","attribute_source_date":1479254400000,"spatial_confidence":3,"latitude":-37.83168658,"longitude":143.88919988,"created_date":1558137600000,"last_edited_on":1769040000000,"globalid":"{AD50A58E-11B8-45EE-803F-C190728506D6}"}},{"type":"Feature","id":41,"geometry":{"type":"Point","coordinates":[143.60373644900005,-37.357448921999946]},"properties":{"objectid":41,"feature_type":"Power Station","feature_subtype":"Renewable","feature_name":"Waubra Wind Farm","feature_description":"A facility used for the generation of electrical power for distribution","status":"Operational","owner":"Acciona Energy Australia","primary_fuel_type":"Wind","primary_fuel_type_descriptor":null,"technology_type":"Turbine - Wind","generation_capacity_mw":192,"number_of_units":128,"locality":"WAUBRA","state":"VIC","feature_source":"Esri World Imagery","feature_source_date":null,"attribute_source":"Aemo-Australian Energy Market Operators 2016","attribute_source_date":1479945600000,"spatial_confidence":2,"latitude":-37.357448919999996,"longitude":143.60373645,"created_date":1349222400000,"last_edited_on":1769040000000,"globalid":"{AC86FCAA-B419-44BA-8C72-2C3B346AE9B2}"}},{"type":"Feature","id":42,"geometry":{"type":"Point","coordinates":[143.11397740200005,-37.38977573899996]},"properties":{"objectid":42,"feature_type":"Power Station","feature_subtype":"Renewable","feature_name":"Challicum Hills Wind Farm","feature_description":"A facility used for the generation of electrical power for distribution","status":"Operational","owner":"Pacific Hydro Pty Ltd","primary_fuel_type":"Wind","primary_fuel_type_descriptor":null,"technology_type":"Turbine - Wind","generation_capacity_mw":52.5,"number_of_units":35,"locality":"BALLYROGAN","state":"VIC","feature_source":"Esri World Imagery","feature_source_date":null,"attribute_source":"Aemo-Australian Energy Market Operators 2016","attribute_source_date":1479340800000,"spatial_confidence":5,"latitude":-37.38977574,"longitude":143.1139774,"created_date":1552867200000,"last_edited_on":1769040000000,"globalid":"{41AB5933-D5F3-4042-989F-57365E345FFF}"}},{"type":"Feature","id":59,"geometry":{"type":"Point","coordinates":[140.40331803000004,-37.760239927999976]},"properties":{"objectid":59,"feature_type":"Power Station","feature_subtype":"Renewable","feature_name":"Canunda Wind Farm","feature_description":"A facility used for the generation of electrical power for distribution","status":"Operational","owner":"International Power - Gdf Suez Australia","primary_fuel_type":"Wind","primary_fuel_type_descriptor":null,"technology_type":"Turbine - Wind","generation_capacity_mw":46,"number_of_units":23,"locality":"GERMAN FLAT","state":"SA","feature_source":"Esri World Imagery","feature_source_date":null,"attribute_source":"Aemo-Australian Energy Market Operators 2016","attribute_source_date":1479427200000,"spatial_confidence":2,"latitude":-37.76023993,"longitude":140.40331803,"created_date":1262044800000,"last_edited_on":1769040000000,"globalid":"{F539EF4F-31BC-4EBC-A25E-6485623A2DA8}"}},{"type":"Feature","id":68,"geometry":{"type":"Point","coordinates":[138.91093875100012,-34.00101126599998]},"properties":{"objectid":68,"feature_type":"Power Station","feature_subtype":"Renewable","feature_name":"Waterloo Wind Farm","feature_description":"A facility used for the generation of electrical power for distribution","status":"Operational","owner":"Truenergy","primary_fuel_type":"Wind","primary_fuel_type_descriptor":null,"technology_type":"Turbine - Wind","generation_capacity_mw":111,"number_of_units":37,"locality":"TOTHILL BELT","state":"SA","feature_source":"Esri World Imagery","feature_source_date":null,"attribute_source":"Aemo-Australian Energy Market Operators 2016","attribute_source_date":1479427200000,"spatial_confidence":3,"latitude":-34.00101127,"longitude":138.91093874999999,"created_date":1387152000000,"last_edited_on":1769040000000,"globalid":"{79A8C49A-3319-4D39-B8EE-01C531A7C823}"}},{"type":"Feature","id":69,"geometry":{"type":"Point","coordinates":[137.7057851410001,-35.110336882999945]},"properties":{"objectid":69,"feature_type":"Power Station","feature_subtype":"Renewable","feature_name":"Wattle Point Wind Farm","feature_description":"A facility used for the generation of electrical power for distribution","status":"Operational","owner":"Anz Energy Infrastructure Trust","primary_fuel_type":"Wind","primary_fuel_type_descriptor":null,"technology_type":"Turbine - Wind","generation_capacity_mw":90.8,"number_of_units":55,"locality":"EDITHBURGH","state":"SA","feature_source":"Esri World Imagery","feature_source_date":null,"attribute_source":"Aemo-Australian Energy Market Operators 2016","attribute_source_date":1479427200000,"spatial_confidence":5,"latitude":-35.110336880000006,"longitude":137.70578514000002,"created_date":1391558400000,"last_edited_on":1769040000000,"globalid":"{ED048537-33A0-40C1-AD56-4092031BAD97}"}},{"type":"Feature","id":71,"geometry":{"type":"Point","coordinates":[138.73233897700004,-33.33972004299994]},"properties":{"objectid":71,"feature_type":"Power Station","feature_subtype":"Renewable","feature_name":"Hallett 1 Brown Hill  Wind Farm","feature_description":"A facility used for the generation of electrical power for distribution","status":"Operational","owner":"Agl Energy Pty Ltd","primary_fuel_type":"Wind","primary_fuel_type_descriptor":null,"technology_type":"Turbine - Wind","generation_capacity_mw":94.5,"number_of_units":45,"locality":"CANOWIE","state":"SA","feature_source":"Esri World Imagery","feature_source_date":null,"attribute_source":"Aemo-Australian Energy Market Operators 2016","attribute_source_date":1479427200000,"spatial_confidence":2,"latitude":-33.33972004,"longitude":138.73233898,"created_date":1394150400000,"last_edited_on":1769040000000,"globalid":"{BAA24368-D202-4719-9DEE-D0603F8A5C02}"}},{"type":"Feature","id":73,"geometry":{"type":"Point","coordinates":[138.85516705300006,-33.522588904999964]},"properties":{"objectid":73,"feature_type":"Power Station","feature_subtype":"Renewable","feature_name":"Hallett 2 Hallet Hill  Wind Farm","feature_description":"A facility used for the generation of electrical power for distribution","status":"Operational","owner":"Anz Energy Infrastructure Trust","primary_fuel_type":"Wind","primary_fuel_type_descriptor":null,"technology_type":"Turbine - Wind","generation_capacity_mw":71.4,"number_of_units":34,"locality":"NORTH BOOBOROWIE","state":"SA","feature_source":"Esri World Imagery","feature_source_date":null,"attribute_source":"Aemo-Australian Energy Market Operators 2016","attribute_source_date":1479427200000,"spatial_confidence":2,"latitude":-33.52258891,"longitude":138.85516705,"created_date":1394150400000,"last_edited_on":1769040000000,"globalid":"{0E4D0A9D-75E8-4AAF-AB9D-66D5FE5F5C92}"}},{"type":"Feature","id":75,"geometry":{"type":"Point","coordinates":[135.58517973200003,-34.85084736199997]},"properties":{"objectid":75,"feature_type":"Power Station","feature_subtype":"Renewable","feature_name":"Cathedral Rocks Wind Farm","feature_description":"A facility used for the generation of electrical power for distribution","status":"Operational","owner":"Truenergy & Acciona Energy","primary_fuel_type":"Wind","primary_fuel_type_descriptor":null,"technology_type":"Turbine - Wind","generation_capacity_mw":66,"number_of_units":33,"locality":"SLEAFORD","state":"SA","feature_source":"Esri World Imagery","feature_source_date":null,"attribute_source":"Aemo-Australian Energy Market Operators 2016","attribute_source_date":1479427200000,"spatial_confidence":2,"latitude":-34.85084736,"longitude":135.58517973000002,"created_date":1355184000000,"last_edited_on":1769040000000,"globalid":"{C09CEEFE-2C7C-4D76-BE1E-1CA4A81DD4DC}"}},{"type":"Feature","id":82,"geometry":{"type":"Point","coordinates":[115.3767646440001,-30.488177622999956]},"properties":{"objectid":82,"feature_type":"Power Station","feature_subtype":"Renewable","feature_name":"Emu Downs Wind Farm","feature_description":"A facility used for the generation of electrical power for distribution","status":"Operational","owner":"Griffin Energy & Stanwell Corporation Ltd","primary_fuel_type":"Wind","primary_fuel_type_descriptor":null,"technology_type":"Turbine - Wind","generation_capacity_mw":79.2,"number_of_units":48,"locality":"BADGINGARRA","state":"WA","feature_source":"Esri World Imagery","feature_source_date":null,"attribute_source":"Www.finance.wa.gov.au","attribute_source_date":1479772800000,"spatial_confidence":2,"latitude":-30.48817762,"longitude":115.37676464,"created_date":1389225600000,"last_edited_on":1769040000000,"globalid":"{863376FF-CE2D-4D1C-BC5F-D88B1F76AD0C}"}},{"type":"Feature","id":92,"geometry":{"type":"Point","coordinates":[118.45657878100008,-31.54316388999996]},"properties":{"objectid":92,"feature_type":"Power Station","feature_subtype":"Renewable","feature_name":"Collgar Wind Farm","feature_description":"A facility used for the generation of electrical power for distribution","status":"Operational","owner":"Ubs Iit/ Rest","primary_fuel_type":"Wind","primary_fuel_type_descriptor":null,"technology_type":"Turbine - Wind","generation_capacity_mw":206,"number_of_units":111,"locality":"NORPA","state":"WA","feature_source":"Esri World Imagery","feature_source_date":null,"attribute_source":"Landgate Public Website","attribute_source_date":1457654400000,"spatial_confidence":2,"latitude":-31.54316389,"longitude":118.45657878,"created_date":1283644800000,"last_edited_on":1769040000000,"globalid":"{32D9CF76-2F9B-4C01-93F5-E2E22D648610}"}},{"type":"Feature","id":99,"geometry":{"type":"Point","coordinates":[145.5485426880001,-38.60752050299993]},"properties":{"objectid":99,"feature_type":"Power Station","feature_subtype":"Renewable","feature_name":"Wonthaggi Wind Farm","feature_description":"A facility used for the generation of electrical power for distribution","status":"Operational","owner":"Origin Energy","primary_fuel_type":"Wind","primary_fuel_type_descriptor":null,"technology_type":"Turbine - Wind","generation_capacity_mw":12,"number_of_units":6,"locality":"WONTHAGGI","state":"VIC","feature_source":"Esri World Imagery","feature_source_date":null,"attribute_source":"Aemo Generator List","attribute_source_date":1343692800000,"spatial_confidence":5,"latitude":-38.6075205,"longitude":145.54854268999998,"created_date":1390780800000,"last_edited_on":1769040000000,"globalid":"{98E38915-4FA3-4C8F-BAAF-7CB63629BEF6}"}},{"type":"Feature","id":100,"geometry":{"type":"Point","coordinates":[114.92816889900007,-28.922837817999948]},"properties":{"objectid":100,"feature_type":"Power Station","feature_subtype":"Renewable","feature_name":"Walkaway Wind Farm","feature_description":"A facility used for the generation of electrical power for distribution","status":"Operational","owner":"Infigen Energy Pty Ltd","primary_fuel_type":"Wind","primary_fuel_type_descriptor":null,"technology_type":"Turbine - Wind","generation_capacity_mw":90,"number_of_units":54,"locality":"WALKAWAY","state":"WA","feature_source":"Esri World Imagery","feature_source_date":null,"attribute_source":"Aemo_Esoo2011chapter4.pdf","attribute_source_date":1322697600000,"spatial_confidence":5,"latitude":-28.922837819999998,"longitude":114.9281689,"created_date":1364860800000,"last_edited_on":1769040000000,"globalid":"{03BC179A-CDC0-4503-83BC-27E44F04F315}"}},{"type":"Feature","id":101,"geometry":{"type":"Point","coordinates":[149.40013515500004,-34.80496878099996]},"properties":{"objectid":101,"feature_type":"Power Station","feature_subtype":"Renewable","feature_name":"Cullerin Range Wind Farm","feature_description":"A facility used for the generation of electrical power for distribution","status":"Operational","owner":"Origin Energy","primary_fuel_type":"Wind","primary_fuel_type_descriptor":null,"technology_type":"Turbine - Wind","generation_capacity_mw":30,"number_of_units":15,"locality":"BREADALBANE","state":"NSW","feature_source":"Esri World Imagery","feature_source_date":null,"attribute_source":"Aemo Generator List","attribute_source_date":1343692800000,"spatial_confidence":5,"latitude":-34.80496878,"longitude":149.40013516000002,"created_date":1380412800000,"last_edited_on":1769040000000,"globalid":"{22B0BB1E-ACE4-4E42-A0F7-D804C6D45749}"}},{"type":"Feature","id":102,"geometry":{"type":"Point","coordinates":[138.14018090700006,-33.71394238299996]},"properties":{"objectid":102,"feature_type":"Power Station","feature_subtype":"Renewable","feature_name":"Snowtown Wind Farm North","feature_description":"A facility used for the generation of electrical power for distribution","status":"Operational","owner":"Tilt Renewables","primary_fuel_type":"Wind","primary_fuel_type_descriptor":null,"technology_type":"Turbine - Wind","generation_capacity_mw":148,"number_of_units":47,"locality":"WOKURNA","state":"SA","feature_source":"Esri World Imagery","feature_source_date":null,"attribute_source":"Aemo Generator List","attribute_source_date":1343692800000,"spatial_confidence":5,"latitude":-33.71394238,"longitude":138.14018091,"created_date":1359936000000,"last_edited_on":1769040000000,"globalid":"{EA5A676B-5B4E-4F75-B7EE-CDB26E4C93D4}"}},{"type":"Feature","id":103,"geometry":{"type":"Point","coordinates":[141.38505051700008,-38.35764162199996]},"properties":{"objectid":103,"feature_type":"Power Station","feature_subtype":"Renewable","feature_name":"Cape Bridgewater Wind Farm","feature_description":"A facility used for the generation of electrical power for distribution","status":"Operational","owner":"Pacific Hydro Pty Ltd","primary_fuel_type":"Wind","primary_fuel_type_descriptor":null,"technology_type":"Turbine - Wind","generation_capacity_mw":58,"number_of_units":29,"locality":"CAPE BRIDGEWATER","state":"VIC","feature_source":"Esri World Imagery","feature_source_date":null,"attribute_source":"Aemo Generator List","attribute_source_date":1343692800000,"spatial_confidence":5,"latitude":-38.357641619999995,"longitude":141.38505052,"created_date":1324512000000,"last_edited_on":1769040000000,"globalid":"{4439E09F-E591-430F-A9BE-E33C733A6C90}"}},{"type":"Feature","id":105,"geometry":{"type":"Point","coordinates":[144.69095584700005,-40.71944806899995]},"properties":{"objectid":105,"feature_type":"Power Station","feature_subtype":"Renewable","feature_name":"Bluff Point (Woolnorth) Wind Farm","feature_description":"A facility used for the generation of electrical power for distribution","status":"Operational","owner":"Hydro-Electric Corporation (Tasmania)","primary_fuel_type":"Wind","primary_fuel_type_descriptor":null,"technology_type":"Turbine - Wind","generation_capacity_mw":65,"number_of_units":37,"locality":"WOOLNORTH","state":"TAS","feature_source":"Esri World Imagery","feature_source_date":null,"attribute_source":"Aemo Generator List","attribute_source_date":1422576000000,"spatial_confidence":5,"latitude":-40.71944807,"longitude":144.69095585,"created_date":1349222400000,"last_edited_on":1769040000000,"globalid":"{37F6F51F-5265-4976-817A-DC51F7DB8527}"}},{"type":"Feature","id":106,"geometry":{"type":"Point","coordinates":[144.7369213080001,-40.78177972699996]},"properties":{"objectid":106,"feature_type":"Power Station","feature_subtype":"Renewable","feature_name":"Studland Bay (Woolnorth) Wind Farm","feature_description":"A facility used for the generation of electrical power for distribution","status":"Operational","owner":"Hydro-Electric Corporation (Tasmania)","primary_fuel_type":"Wind","primary_fuel_type_descriptor":null,"technology_type":"Turbine - Wind","generation_capacity_mw":75,"number_of_units":25,"locality":"WOOLNORTH","state":"TAS","feature_source":"Esri World Imagery","feature_source_date":null,"attribute_source":"Aemo Generator List","attribute_source_date":1422576000000,"spatial_confidence":5,"latitude":-40.781779730000004,"longitude":144.73692130999999,"created_date":1266364800000,"last_edited_on":1769040000000,"globalid":"{CBC951CB-8396-4BF9-8FFB-212C9E612939}"}},{"type":"Feature","id":108,"geometry":{"type":"Point","coordinates":[142.54673116200001,-37.68704618399994]},"properties":{"objectid":108,"feature_type":"Power Station","feature_subtype":"Renewable","feature_name":"Oakland Hills Wind Farm","feature_description":"A facility used for the generation of electrical power for distribution","status":"Operational","owner":"Agl Energy Pty Ltd","primary_fuel_type":"Wind","primary_fuel_type_descriptor":null,"technology_type":"Turbine - Wind","generation_capacity_mw":67,"number_of_units":32,"locality":"GLENTHOMPSON","state":"VIC","feature_source":"Esri World Imagery","feature_source_date":null,"attribute_source":"Aemo Generator List","attribute_source_date":1343692800000,"spatial_confidence":3,"latitude":-37.687046179999996,"longitude":142.54673115999998,"created_date":1392076800000,"last_edited_on":1769040000000,"globalid":"{8E397092-1D4C-425C-817B-FCFE590CE859}"}},{"type":"Feature","id":109,"geometry":{"type":"Point","coordinates":[138.72960286400007,-33.30924640599994]},"properties":{"objectid":109,"feature_type":"Power Station","feature_subtype":"Renewable","feature_name":"North Brown Hill  Wind Farm","feature_description":"A facility used for the generation of electrical power for distribution","status":"Operational","owner":"Agl Energy Pty Ltd","primary_fuel_type":"Wind","primary_fuel_type_descriptor":null,"technology_type":"Turbine - Wind","generation_capacity_mw":132.3,"number_of_units":63,"locality":"BELALIE EAST","state":"SA","feature_source":"Esri World Imagery","feature_source_date":null,"attribute_source":"Aemo Generator List","attribute_source_date":1343692800000,"spatial_confidence":3,"latitude":-33.30924641,"longitude":138.72960286,"created_date":1394150400000,"last_edited_on":1769040000000,"globalid":"{6ED9F015-B391-462A-9232-F7AA2A884B1A}"}},{"type":"Feature","id":110,"geometry":{"type":"Point","coordinates":[138.13081815700002,-33.508637430999954]},"properties":{"objectid":110,"feature_type":"Power Station","feature_subtype":"Renewable","feature_name":"Clements Gap Wind Farm","feature_description":"A facility used for the generation of electrical power for distribution","status":"Operational","owner":"Pacific Hydro Pty Ltd","primary_fuel_type":"Wind","primary_fuel_type_descriptor":null,"technology_type":"Turbine - Wind","generation_capacity_mw":57,"number_of_units":27,"locality":"CLEMENTS GAP","state":"SA","feature_source":"Esri World Imagery","feature_source_date":null,"attribute_source":"Aemo Generator List","attribute_source_date":1343692800000,"spatial_confidence":3,"latitude":-33.50863743,"longitude":138.13081816,"created_date":1359936000000,"last_edited_on":1769040000000,"globalid":"{A755A94D-E652-4B22-BB2E-70D9878AC55A}"}},{"type":"Feature","id":112,"geometry":{"type":"Point","coordinates":[149.19821575000003,-33.62187713499998]},"properties":{"objectid":112,"feature_type":"Power Station","feature_subtype":"Renewable","feature_name":"Blayney Wind Farm","feature_description":"A facility used for the generation of electrical power for distribution","status":"Operational","owner":"Eraring Energy","primary_fuel_type":"Wind","primary_fuel_type_descriptor":null,"technology_type":"Turbine - Wind","generation_capacity_mw":9.9,"number_of_units":15,"locality":"CARCOAR","state":"NSW","feature_source":"Esri World Imagery","feature_source_date":null,"attribute_source":"Aemo Generator List","attribute_source_date":1343692800000,"spatial_confidence":5,"latitude":-33.62187714,"longitude":149.19821575,"created_date":1287532800000,"last_edited_on":1769040000000,"globalid":"{6CAB6A83-0313-4C85-A870-0FB35F63989F}"}},{"type":"Feature","id":113,"geometry":{"type":"Point","coordinates":[149.57161129000008,-35.08604687899998]},"properties":{"objectid":113,"feature_type":"Power Station","feature_subtype":"Renewable","feature_name":"Woodlawn Wind Farm","feature_description":"A facility used for the generation of electrical power for distribution","status":"Operational","owner":"Infigen Energy Pty Ltd","primary_fuel_type":"Wind","primary_fuel_type_descriptor":null,"technology_type":"Turbine - Wind","generation_capacity_mw":48,"number_of_units":23,"locality":"TARAGO","state":"NSW","feature_source":"Esri World Imagery","feature_source_date":null,"attribute_source":"Aemo Generator List","attribute_source_date":1343692800000,"spatial_confidence":3,"latitude":-35.08604688,"longitude":149.57161129,"created_date":1381622400000,"last_edited_on":1769040000000,"globalid":"{5E630EF4-16CD-474B-9329-B5C877CCE423}"}},{"type":"Feature","id":119,"geometry":{"type":"Point","coordinates":[149.38339733100008,-34.69709582899998]},"properties":{"objectid":119,"feature_type":"Power Station","feature_subtype":"Renewable","feature_name":"Gunning","feature_description":"A facility used for the generation of electrical power for distribution","status":"Operational","owner":"Acciona Energy Australia","primary_fuel_type":"Wind","primary_fuel_type_descriptor":null,"technology_type":"Turbine - Wind","generation_capacity_mw":47,"number_of_units":31,"locality":"GURRUNDAH","state":"NSW","feature_source":"Esri World Imagery","feature_source_date":null,"attribute_source":"Aemo Generator List","attribute_source_date":1343692800000,"spatial_confidence":3,"latitude":-34.69709583,"longitude":149.38339732999998,"created_date":1380412800000,"last_edited_on":1769040000000,"globalid":"{B7109182-2746-43A1-AEC9-142D7E063166}"}},{"type":"Feature","id":122,"geometry":{"type":"Point","coordinates":[149.5226430140001,-35.159504020999975]},"properties":{"objectid":122,"feature_type":"Power Station","feature_subtype":"Renewable","feature_name":"Capital Hill Wind Farm","feature_description":"A facility used for the generation of electrical power for distribution","status":"Operational","owner":"Infigen Energy Pty Ltd","primary_fuel_type":"Wind","primary_fuel_type_descriptor":null,"technology_type":"Turbine - Wind","generation_capacity_mw":140,"number_of_units":67,"locality":"TARAGO","state":"NSW","feature_source":"Esri World Imagery","feature_source_date":null,"attribute_source":"Aemo Generator List","attribute_source_date":1343692800000,"spatial_confidence":5,"latitude":-35.15950402,"longitude":149.52264301000002,"created_date":1381622400000,"last_edited_on":1769040000000,"globalid":"{97ED1327-5B45-49CE-8072-295C71016B2A}"}},{"type":"Feature","id":124,"geometry":{"type":"Point","coordinates":[145.53060766600004,-17.592186724999976]},"properties":{"objectid":124,"feature_type":"Power Station","feature_subtype":"Renewable","feature_name":"Windy Hill Wind Farm","feature_description":"A facility used for the generation of electrical power for distribution","status":"Operational","owner":"Ratch-Australia","primary_fuel_type":"Wind","primary_fuel_type_descriptor":null,"technology_type":"Turbine - Wind","generation_capacity_mw":12,"number_of_units":20,"locality":"RAVENSHOE","state":"QLD","feature_source":"Esri World Imagery","feature_source_date":null,"attribute_source":"Aemo Generator List","attribute_source_date":1343692800000,"spatial_confidence":5,"latitude":-17.592186729999998,"longitude":145.53060767,"created_date":1313712000000,"last_edited_on":1769040000000,"globalid":"{189E3439-9DEB-4404-869B-1A7AF0B7EC6B}"}},{"type":"Feature","id":125,"geometry":{"type":"Point","coordinates":[138.1318714560001,-35.576222334999954]},"properties":{"objectid":125,"feature_type":"Power Station","feature_subtype":"Renewable","feature_name":"Starfish Hill Wind Farm","feature_description":"A facility used for the generation of electrical power for distribution","status":"Operational","owner":"Ratch-Australia","primary_fuel_type":"Wind","primary_fuel_type_descriptor":null,"technology_type":"Turbine - Wind","generation_capacity_mw":34.5,"number_of_units":23,"locality":"CAPE JERVIS","state":"SA","feature_source":"Esri World Imagery","feature_source_date":null,"attribute_source":"Aemo Generator List","attribute_source_date":1343692800000,"spatial_confidence":5,"latitude":-35.57622234,"longitude":138.13187145999999,"created_date":1264896000000,"last_edited_on":1769040000000,"globalid":"{52297264-71F5-496F-B7ED-B0846EFF0433}"}},{"type":"Feature","id":131,"geometry":{"type":"Point","coordinates":[136.7039033630001,-33.62549610499997]},"properties":{"objectid":131,"feature_type":"Power Station","feature_subtype":"Renewable","feature_name":"Mount Millar Wind Farm","feature_description":"A facility used for the generation of electrical power for distribution","status":"Operational","owner":"Meridian Energy Australia","primary_fuel_type":"Wind","primary_fuel_type_descriptor":null,"technology_type":"Turbine - Wind","generation_capacity_mw":70,"number_of_units":35,"locality":"COWELL","state":"SA","feature_source":"Esri World Imagery","feature_source_date":null,"attribute_source":"Aemo Generator List","attribute_source_date":1343692800000,"spatial_confidence":4,"latitude":-33.62549611,"longitude":136.70390336,"created_date":1365552000000,"last_edited_on":1769040000000,"globalid":"{0A89019D-D333-49A3-AC0C-CE56F9D745E9}"}},{"type":"Feature","id":132,"geometry":{"type":"Point","coordinates":[140.41950581100002,-37.81488058699995]},"properties":{"objectid":132,"feature_type":"Power Station","feature_subtype":"Renewable","feature_name":"Lake Bonney Stage 2 Wind Farm","feature_description":"A facility used for the generation of electrical power for distribution","status":"Operational","owner":"Infigen Energy Pty Ltd","primary_fuel_type":"Wind","primary_fuel_type_descriptor":null,"technology_type":"Turbine - Wind","generation_capacity_mw":159,"number_of_units":53,"locality":"GERMAN FLAT","state":"SA","feature_source":"Esri World Imagery","feature_source_date":null,"attribute_source":"Aemo Generator List","attribute_source_date":1343692800000,"spatial_confidence":3,"latitude":-37.81488059,"longitude":140.41950581,"created_date":1262044800000,"last_edited_on":1769040000000,"globalid":"{65A5DE4D-F65D-4601-9371-BB52BBA042C4}"}},{"type":"Feature","id":133,"geometry":{"type":"Point","coordinates":[117.79770563600005,-35.06413352199996]},"properties":{"objectid":133,"feature_type":"Power Station","feature_subtype":"Renewable","feature_name":"Albany Wind Farm","feature_description":"A facility used for the generation of electrical power for distribution","status":"Operational","owner":"Verve Energy","primary_fuel_type":"Wind","primary_fuel_type_descriptor":null,"technology_type":"Turbine - Wind","generation_capacity_mw":21.6,"number_of_units":12,"locality":"SANDPATCH","state":"WA","feature_source":"Esri World Imagery","feature_source_date":null,"attribute_source":"Albanywindfarm.pdf","attribute_source_date":1322697600000,"spatial_confidence":5,"latitude":-35.064133520000006,"longitude":117.79770564,"created_date":1298419200000,"last_edited_on":1769040000000,"globalid":"{1FDBC29D-4154-4561-B490-0087026AB7F4}"}},{"type":"Feature","id":135,"geometry":{"type":"Point","coordinates":[146.34034235900003,-38.65313710799995]},"properties":{"objectid":135,"feature_type":"Power Station","feature_subtype":"Renewable","feature_name":"Toora Wind Farm","feature_description":"A facility used for the generation of electrical power for distribution","status":"Operational","owner":"Ratch-Australia","primary_fuel_type":"Wind","primary_fuel_type_descriptor":null,"technology_type":"Turbine - Wind","generation_capacity_mw":21,"number_of_units":12,"locality":"TOORA","state":"VIC","feature_source":"Esri World Imagery","feature_source_date":null,"attribute_source":"Aemo Generator List","attribute_source_date":1343692800000,"spatial_confidence":5,"latitude":-38.65313711,"longitude":146.34034236000002,"created_date":1335139200000,"last_edited_on":1769040000000,"globalid":"{757F0E26-7C78-4FC9-BEA6-E0EEBA22122B}"}},{"type":"Feature","id":151,"geometry":{"type":"Point","coordinates":[141.62085687100011,-38.397580054999935]},"properties":{"objectid":151,"feature_type":"Power Station","feature_subtype":"Renewable","feature_name":"Cape Sir William Grant Wind Farm","feature_description":"A facility used for the generation of electrical power for distribution","status":"Operational","owner":"Pacific Hydro Pty Ltd","primary_fuel_type":"Wind","primary_fuel_type_descriptor":null,"technology_type":"Turbine - Wind","generation_capacity_mw":54,"number_of_units":27,"locality":"PORTLAND","state":"VIC","feature_source":"Esri World Imagery","feature_source_date":null,"attribute_source":"Department Of Primary Industries","attribute_source_date":1320105600000,"spatial_confidence":3,"latitude":-38.39758005,"longitude":141.62085687,"created_date":1324512000000,"last_edited_on":1769040000000,"globalid":"{A6538A9E-0FEB-4D55-8D0B-9F61D677B0DD}"}},{"type":"Feature","id":152,"geometry":{"type":"Point","coordinates":[141.5430064840001,-38.41198658199994]},"properties":{"objectid":152,"feature_type":"Power Station","feature_subtype":"Renewable","feature_name":"Cape Nelson South Wind Farm","feature_description":"A facility used for the generation of electrical power for distribution","status":"Operational","owner":"Pacific Hydro Pty Ltd","primary_fuel_type":"Wind","primary_fuel_type_descriptor":null,"technology_type":"Turbine - Wind","generation_capacity_mw":44,"number_of_units":22,"locality":"PORTLAND WEST","state":"VIC","feature_source":"Esri World Imagery","feature_source_date":null,"attribute_source":"Aemo Generator List","attribute_source_date":1343692800000,"spatial_confidence":5,"latitude":-38.411986580000004,"longitude":141.54300648,"created_date":1324512000000,"last_edited_on":1769040000000,"globalid":"{481BB914-27F4-43B1-865D-BC345425B396}"}},{"type":"Feature","id":153,"geometry":{"type":"Point","coordinates":[141.54839065800002,-38.36552018699996]},"properties":{"objectid":153,"feature_type":"Power Station","feature_subtype":"Renewable","feature_name":"Cape Nelson North Wind Farm","feature_description":"A facility used for the generation of electrical power for distribution","status":"Operational","owner":"Pacific Hydro Pty Ltd","primary_fuel_type":"Wind","primary_fuel_type_descriptor":null,"technology_type":"Turbine - Wind","generation_capacity_mw":22,"number_of_units":11,"locality":"PORTLAND WEST","state":"VIC","feature_source":"Esri World Imagery","feature_source_date":null,"attribute_source":"Department Of Primary Industries","attribute_source_date":1309478400000,"spatial_confidence":3,"latitude":-38.36552019,"longitude":141.54839066000002,"created_date":1324512000000,"last_edited_on":1769040000000,"globalid":"{0F4AE1D4-7E68-4C79-8AD1-97CF0622F222}"}},{"type":"Feature","id":288,"geometry":{"type":"Point","coordinates":[117.76377154500005,-35.05063703899998]},"properties":{"objectid":288,"feature_type":"Power Station","feature_subtype":"Renewable","feature_name":"Grasmere Wind Farm (Albany Stage Ii)","feature_description":"A facility used for the generation of electrical power for distribution","status":"Operational","owner":"Verve Energy","primary_fuel_type":"Wind","primary_fuel_type_descriptor":null,"technology_type":"Turbine - Wind","generation_capacity_mw":13.8,"number_of_units":6,"locality":"SANDPATCH","state":"WA","feature_source":"Esri World Imagery","feature_source_date":null,"attribute_source":"Grasmere Wind Farm Website","attribute_source_date":1325376000000,"spatial_confidence":5,"latitude":-35.050637040000005,"longitude":117.76377155,"created_date":1298419200000,"last_edited_on":1769040000000,"globalid":"{C84A787C-9371-4708-B679-9F6DC2825AAA}"}},{"type":"Feature","id":311,"geometry":{"type":"Point","coordinates":[149.12672997200002,-36.57629773599996]},"properties":{"objectid":311,"feature_type":"Power Station","feature_subtype":"Renewable","feature_name":"Boco Rock","feature_description":"A facility used for the generation of electrical power for distribution","status":"Operational","owner":"Boco Rock Wind Farm Pty Ltd","primary_fuel_type":"Wind","primary_fuel_type_descriptor":null,"technology_type":"Turbine - Wind","generation_capacity_mw":113,"number_of_units":null,"locality":"SPRINGFIELD","state":"NSW","feature_source":"Esri World Imagery","feature_source_date":null,"attribute_source":"Aemo Generator List","attribute_source_date":1343692800000,"spatial_confidence":5,"latitude":-36.57629774,"longitude":149.12672997,"created_date":1548374400000,"last_edited_on":1769040000000,"globalid":"{21BD48A6-D859-4621-988E-C2C6398FC8FC}"}},{"type":"Feature","id":312,"geometry":{"type":"Point","coordinates":[148.82924311800002,-34.56490894899997]},"properties":{"objectid":312,"feature_type":"Power Station","feature_subtype":"Renewable","feature_name":"Bango Wind Farm","feature_description":"A facility used for the generation of electrical power for distribution","status":"Operational","owner":"Bango Wind Farm Pty Ltd","primary_fuel_type":"Wind","primary_fuel_type_descriptor":null,"technology_type":"Turbine - Wind","generation_capacity_mw":155,"number_of_units":null,"locality":"KANGIARA","state":"NSW","feature_source":"Esri World Imagery","feature_source_date":null,"attribute_source":"Aemo Generator List","attribute_source_date":1769731200000,"spatial_confidence":5,"latitude":-34.56490895,"longitude":148.82924311999997,"created_date":1351382400000,"last_edited_on":1775088000000,"globalid":"{A11B6F8C-70F4-4FCB-95B9-706D108C8CD4}"}},{"type":"Feature","id":316,"geometry":{"type":"Point","coordinates":[148.0097437180001,-40.77979775799997]},"properties":{"objectid":316,"feature_type":"Power Station","feature_subtype":"Renewable","feature_name":"Musselroe","feature_description":"A facility used for the generation of electrical power for distribution","status":"Operational","owner":"Hydro Tasmania Wind Operations Pty Ltd","primary_fuel_type":"Wind","primary_fuel_type_descriptor":null,"technology_type":"Turbine - Wind","generation_capacity_mw":168,"number_of_units":56,"locality":"CAPE PORTLAND","state":"TAS","feature_source":"Esri World Imagery","feature_source_date":null,"attribute_source":"Aemo Generator List","attribute_source_date":1422576000000,"spatial_confidence":5,"latitude":-40.77979776,"longitude":148.00974372000002,"created_date":1319500800000,"last_edited_on":1769040000000,"globalid":"{8DC7103D-F5B4-4B8E-9861-B797C1B01CD3}"}},{"type":"Feature","id":317,"geometry":{"type":"Point","coordinates":[149.09980105300008,-32.41458728099997]},"properties":{"objectid":317,"feature_type":"Power Station","feature_subtype":"Renewable","feature_name":"Bodangora Wind Farm","feature_description":"A facility used for the generation of electrical power for distribution","status":"Operational","owner":"Infigen Energy","primary_fuel_type":"Wind","primary_fuel_type_descriptor":null,"technology_type":"Turbine - Wind","generation_capacity_mw":113,"number_of_units":null,"locality":"BODANGORA","state":"NSW","feature_source":"Esri World Imagery","feature_source_date":null,"attribute_source":"Aemo Generator List","attribute_source_date":1554336000000,"spatial_confidence":5,"latitude":-32.41458728,"longitude":149.09980105,"created_date":1545523200000,"last_edited_on":1769040000000,"globalid":"{788F2A40-2667-4EBB-AC9B-1B762309D8B3}"}},{"type":"Feature","id":324,"geometry":{"type":"Point","coordinates":[143.89197049400002,-39.93877200299994]},"properties":{"objectid":324,"feature_type":"Power Station","feature_subtype":"Renewable","feature_name":"King Island (Currie)","feature_description":"A facility used for the generation of electrical power for distribution","status":"Operational","owner":"Hydro Tasmania","primary_fuel_type":"Wind/solar","primary_fuel_type_descriptor":null,"technology_type":"Turbine - Wind/solar Photovoltaic","generation_capacity_mw":8.6,"number_of_units":9,"locality":"NUGARA","state":"TAS","feature_source":"Esri World Imagery","feature_source_date":null,"attribute_source":"Hydro Tasmania Website","attribute_source_date":1769126400000,"spatial_confidence":5,"latitude":-39.938772,"longitude":143.89197049,"created_date":1318896000000,"last_edited_on":1769126400000,"globalid":"{90CC9A41-CCBC-481E-9CC9-74A3B5321992}"}},{"type":"Feature","id":327,"geometry":{"type":"Point","coordinates":[138.72995068800003,-33.39494666799993]},"properties":{"objectid":327,"feature_type":"Power Station","feature_subtype":"Renewable","feature_name":"Hallett 1 Brown Hill  Wind Farm","feature_description":"A facility used for the generation of electrical power for distribution","status":"Operational","owner":"Agl Energy Pty Ltd","primary_fuel_type":"Wind","primary_fuel_type_descriptor":null,"technology_type":"Turbine - Wind","generation_capacity_mw":94.5,"number_of_units":45,"locality":"CANOWIE","state":"SA","feature_source":"Esri World Imagery","feature_source_date":null,"attribute_source":"Aemo Generator List","attribute_source_date":1343692800000,"spatial_confidence":3,"latitude":-33.39494667,"longitude":138.72995068999998,"created_date":1394150400000,"last_edited_on":1769040000000,"globalid":"{264D7DF3-506B-4EC7-8E1D-B3EAF876D346}"}},{"type":"Feature","id":328,"geometry":{"type":"Point","coordinates":[138.79283883000005,-33.38553272699994]},"properties":{"objectid":328,"feature_type":"Power Station","feature_subtype":"Renewable","feature_name":"Hallet 5 - The Bluff","feature_description":"A facility used for the generation of electrical power for distribution","status":"Operational","owner":"Agl Energy Pty Ltd","primary_fuel_type":"Wind","primary_fuel_type_descriptor":null,"technology_type":"Turbine - Wind","generation_capacity_mw":52.5,"number_of_units":45,"locality":"HALLETT","state":"SA","feature_source":"Esri World Imagery","feature_source_date":null,"attribute_source":"Aemo Generator List","attribute_source_date":1343692800000,"spatial_confidence":3,"latitude":-33.38553273,"longitude":138.79283883,"created_date":1394150400000,"last_edited_on":1769040000000,"globalid":"{83579D18-4A13-43EC-95BA-4468D5982691}"}},{"type":"Feature","id":329,"geometry":{"type":"Point","coordinates":[138.8579578460001,-33.57165459099997]},"properties":{"objectid":329,"feature_type":"Power Station","feature_subtype":"Renewable","feature_name":"Hallett 2 Hallet Hill  Wind Farm","feature_description":"A facility used for the generation of electrical power for distribution","status":"Operational","owner":"Anz Energy Infrastructure Trust","primary_fuel_type":"Wind","primary_fuel_type_descriptor":null,"technology_type":"Turbine - Wind","generation_capacity_mw":71.4,"number_of_units":34,"locality":"BOOBOROWIE","state":"SA","feature_source":"Esri World Imagery","feature_source_date":null,"attribute_source":"Aemo Generator List","attribute_source_date":1343692800000,"spatial_confidence":3,"latitude":-33.571654589999994,"longitude":138.85795785,"created_date":1394150400000,"last_edited_on":1769040000000,"globalid":"{2D22D5DB-2F3D-4380-8495-93723007050C}"}},{"type":"Feature","id":330,"geometry":{"type":"Point","coordinates":[138.1184513490001,-33.83015042899996]},"properties":{"objectid":330,"feature_type":"Power Station","feature_subtype":"Renewable","feature_name":"Snowtown Wind Farm South","feature_description":"A facility used for the generation of electrical power for distribution","status":"Operational","owner":"Tilt Renewables","primary_fuel_type":"Wind","primary_fuel_type_descriptor":null,"technology_type":"Turbine - Wind","generation_capacity_mw":126,"number_of_units":47,"locality":"BARUNGA GAP","state":"SA","feature_source":"Esri World Imagery","feature_source_date":null,"attribute_source":"Aemo Generator List","attribute_source_date":1343692800000,"spatial_confidence":5,"latitude":-33.83015043,"longitude":138.11845135000002,"created_date":1359936000000,"last_edited_on":1769040000000,"globalid":"{D013E9C1-2105-4E56-A4E2-3DC19EA036B4}"}},{"type":"Feature","id":339,"geometry":{"type":"Point","coordinates":[114.95989842900008,-28.99179152299996]},"properties":{"objectid":339,"feature_type":"Power Station","feature_subtype":"Renewable","feature_name":"Mumbida Wind Farm","feature_description":"A facility used for the generation of electrical power for distribution","status":"Operational","owner":"Verve Energy Pty Ltd","primary_fuel_type":"Wind","primary_fuel_type_descriptor":null,"technology_type":"Turbine - Wind","generation_capacity_mw":55,"number_of_units":22,"locality":"BURMA ROAD","state":"WA","feature_source":"Esri World Imagery","feature_source_date":null,"attribute_source":"Aemo_Esoo2011chapter4.pdf","attribute_source_date":1392768000000,"spatial_confidence":5,"latitude":-28.991791520000003,"longitude":114.95989843,"created_date":1364860800000,"last_edited_on":1769040000000,"globalid":"{39A324D7-A4EA-4D14-B5EA-A6733F1AAA17}"}},{"type":"Feature","id":343,"geometry":{"type":"Point","coordinates":[149.48412001500003,-34.69036223899997]},"properties":{"objectid":343,"feature_type":"Power Station","feature_subtype":"Renewable","feature_name":"Gullen Range Wind Farm","feature_description":"A facility used for the generation of electrical power for distribution","status":"Operational","owner":"Jingneng","primary_fuel_type":"Wind","primary_fuel_type_descriptor":null,"technology_type":"Turbine - Wind","generation_capacity_mw":166,"number_of_units":73,"locality":"GURRUNDAH","state":"NSW","feature_source":"Esri World Imagery","feature_source_date":null,"attribute_source":"Aemo Generator List","attribute_source_date":1343692800000,"spatial_confidence":5,"latitude":-34.69036224,"longitude":149.48412002,"created_date":1380412800000,"last_edited_on":1769040000000,"globalid":"{D1E9354A-BA0F-45CF-8C5D-7BFBD1D1A6D4}"}},{"type":"Feature","id":344,"geometry":{"type":"Point","coordinates":[140.40579841500005,-37.781532338999966]},"properties":{"objectid":344,"feature_type":"Power Station","feature_subtype":"Renewable","feature_name":"Lake Bonney Stage 1 Wind Farm","feature_description":"A facility used for the generation of electrical power for distribution","status":"Operational","owner":"Infigen Energy Pty Ltd","primary_fuel_type":"Wind","primary_fuel_type_descriptor":null,"technology_type":"Turbine - Wind","generation_capacity_mw":80.5,"number_of_units":46,"locality":"GERMAN FLAT","state":"SA","feature_source":"Esri World Imagery","feature_source_date":null,"attribute_source":"Aemo Generator List","attribute_source_date":1343692800000,"spatial_confidence":3,"latitude":-37.78153234,"longitude":140.40579842,"created_date":1262044800000,"last_edited_on":1769040000000,"globalid":"{23B71F05-9202-478A-BB4E-7FC3EB50E20C}"}},{"type":"Feature","id":345,"geometry":{"type":"Point","coordinates":[140.39303591300006,-37.75048288599993]},"properties":{"objectid":345,"feature_type":"Power Station","feature_subtype":"Renewable","feature_name":"Lake Bonney Stage 3 Wind Farm","feature_description":"A facility used for the generation of electrical power for distribution","status":"Operational","owner":"Infigen Energy Pty Ltd","primary_fuel_type":"Wind","primary_fuel_type_descriptor":null,"technology_type":"Turbine - Wind","generation_capacity_mw":39,"number_of_units":13,"locality":"GERMAN FLAT","state":"SA","feature_source":"Esri World Imagery","feature_source_date":null,"attribute_source":"Aemo Generator List","attribute_source_date":1343692800000,"spatial_confidence":4,"latitude":-37.75048289,"longitude":140.39303591,"created_date":1262044800000,"last_edited_on":1769040000000,"globalid":"{AE232D6F-8263-4EDF-95AF-39C52531FAB6}"}},{"type":"Feature","id":349,"geometry":{"type":"Point","coordinates":[149.4597489130001,-34.61490393699995]},"properties":{"objectid":349,"feature_type":"Power Station","feature_subtype":"Renewable","feature_name":"Gullen Range Wind Farm","feature_description":"A facility used for the generation of electrical power for distribution","status":"Operational","owner":"Tianrun Australia","primary_fuel_type":"Wind","primary_fuel_type_descriptor":null,"technology_type":"Turbine - Wind","generation_capacity_mw":165.5,"number_of_units":73,"locality":"BANNISTER","state":"NSW","feature_source":"Esri World Imagery","feature_source_date":null,"attribute_source":"Aemo Generator List","attribute_source_date":1479945600000,"spatial_confidence":3,"latitude":-34.61490394,"longitude":149.45974891,"created_date":1380412800000,"last_edited_on":1769040000000,"globalid":"{468F4387-0102-4C4D-B11B-D01A03462416}"}},{"type":"Feature","id":350,"geometry":{"type":"Point","coordinates":[142.466044978,-37.83536779699995]},"properties":{"objectid":350,"feature_type":"Power Station","feature_subtype":"Renewable","feature_name":"Mortons Lane Wind Farm","feature_description":"A facility used for the generation of electrical power for distribution","status":"Operational","owner":"China Guangdong Nuclear Wind Energy Company","primary_fuel_type":"Wind","primary_fuel_type_descriptor":null,"technology_type":"Turbine - Wind","generation_capacity_mw":20,"number_of_units":13,"locality":"WOODHOUSE","state":"VIC","feature_source":"Esri World Imagery","feature_source_date":null,"attribute_source":"Aemo Generator List","attribute_source_date":1343692800000,"spatial_confidence":3,"latitude":-37.83536779999999,"longitude":142.46604498000002,"created_date":1329955200000,"last_edited_on":1769040000000,"globalid":"{9D8B969A-66EC-4E11-A3DF-4C9B53DA8D29}"}},{"type":"Feature","id":351,"geometry":{"type":"Point","coordinates":[143.079436879,-37.238504853999984]},"properties":{"objectid":351,"feature_type":"Power Station","feature_subtype":"Renewable","feature_name":"Ararat Wind Farm","feature_description":"A facility used for the generation of electrical power for distribution","status":"Operational","owner":"Renewable Energy Systems Ltd","primary_fuel_type":"Wind","primary_fuel_type_descriptor":null,"technology_type":"Turbine - Wind","generation_capacity_mw":240,"number_of_units":75,"locality":"ARARAT","state":"VIC","feature_source":"Esri World Imagery","feature_source_date":null,"attribute_source":"Aemo-Australian Energy Market Operators 2016","attribute_source_date":1481673600000,"spatial_confidence":4,"latitude":-37.238504850000005,"longitude":143.07943688,"created_date":1347321600000,"last_edited_on":1769040000000,"globalid":"{6EB688F5-A35C-4F64-A6DC-45DB2609228E}"}},{"type":"Feature","id":352,"geometry":{"type":"Point","coordinates":[138.55622372900007,-33.04282551199998]},"properties":{"objectid":352,"feature_type":"Power Station","feature_subtype":"Renewable","feature_name":"Hornsdale Wind Farm","feature_description":"A facility used for the generation of electrical power for distribution","status":"Non-Operational","owner":"Neoen","primary_fuel_type":"Wind","primary_fuel_type_descriptor":null,"technology_type":"Turbine - Wind","generation_capacity_mw":310,"number_of_units":99,"locality":"HORNSDALE","state":"SA","feature_source":"Esri World Imagery","feature_source_date":null,"attribute_source":"Aemo-Australian Energy Market Operators 2016","attribute_source_date":1476403200000,"spatial_confidence":2,"latitude":-33.04282551,"longitude":138.55622373,"created_date":1393200000000,"last_edited_on":1769040000000,"globalid":"{9F33C7ED-8A0F-4803-8DF9-09A9C37AD60D}"}},{"type":"Feature","id":368,"geometry":{"type":"Point","coordinates":[137.55719938800007,-32.56449394599997]},"properties":{"objectid":368,"feature_type":"Power Station","feature_subtype":"Renewable","feature_name":"Lincoln Gap","feature_description":"A facility used for the generation of electrical power for distribution","status":"Operational","owner":"Nexif Energy Australia","primary_fuel_type":"Wind","primary_fuel_type_descriptor":null,"technology_type":"Turbine - Wind","generation_capacity_mw":10,"number_of_units":null,"locality":"PANDURRA","state":"SA","feature_source":"Esri World Imagery","feature_source_date":null,"attribute_source":"Aemo Generator List","attribute_source_date":1554336000000,"spatial_confidence":3,"latitude":-32.56449395,"longitude":137.55719939,"created_date":1550275200000,"last_edited_on":1769385600000,"globalid":"{B744A1D4-8EEF-4198-905C-C153CB9E21C8}"}},{"type":"Feature","id":369,"geometry":{"type":"Point","coordinates":[145.9492885080001,-38.74678641299994]},"properties":{"objectid":369,"feature_type":"Power Station","feature_subtype":"Renewable","feature_name":"Bald Hill Wind Farm","feature_description":"A facility used for the generation of electrical power for distribution","status":"Operational","owner":"Origin Energy","primary_fuel_type":"Wind","primary_fuel_type_descriptor":null,"technology_type":"Turbine - Wind","generation_capacity_mw":null,"number_of_units":null,"locality":"TARWIN LOWER","state":"VIC","feature_source":"Esri World Imagery","feature_source_date":null,"attribute_source":"Aemo Generator List","attribute_source_date":1554336000000,"spatial_confidence":5,"latitude":-38.74678641,"longitude":145.94928851,"created_date":1561680000000,"last_edited_on":1769040000000,"globalid":"{2E9ABFC0-9086-4D67-907A-B325B0BD435A}"}},{"type":"Feature","id":371,"geometry":{"type":"Point","coordinates":[143.15372141900002,-37.12154655599994]},"properties":{"objectid":371,"feature_type":"Power Station","feature_subtype":"Renewable","feature_name":"Crowlands Wind Farm","feature_description":"A facility used for the generation of electrical power for distribution","status":"Operational","owner":"Pacific Hydro","primary_fuel_type":"Wind","primary_fuel_type_descriptor":null,"technology_type":"Turbine - Wind","generation_capacity_mw":80,"number_of_units":null,"locality":"CROWLANDS","state":"VIC","feature_source":"Esri World Imagery","feature_source_date":null,"attribute_source":"Aemo Generator List","attribute_source_date":1554336000000,"spatial_confidence":3,"latitude":-37.12154656,"longitude":143.15372141999998,"created_date":1567468800000,"last_edited_on":1769040000000,"globalid":"{47816808-BE51-42BF-A2D2-24FB5485F04A}"}},{"type":"Feature","id":372,"geometry":{"type":"Point","coordinates":[141.74738958000012,-36.396569814999964]},"properties":{"objectid":372,"feature_type":"Power Station","feature_subtype":"Renewable","feature_name":"Kiata Wind Farm","feature_description":"A facility used for the generation of electrical power for distribution","status":"Operational","owner":"Windlab Limited","primary_fuel_type":"Wind","primary_fuel_type_descriptor":null,"technology_type":"Turbine - Wind","generation_capacity_mw":31,"number_of_units":null,"locality":"KIATA","state":"VIC","feature_source":"Esri World Imagery","feature_source_date":null,"attribute_source":"Aemo Generator List","attribute_source_date":1554336000000,"spatial_confidence":3,"latitude":-36.39656982,"longitude":141.74738958,"created_date":1551225600000,"last_edited_on":1769040000000,"globalid":"{06847A30-004A-4659-B3E1-C0763776E7C0}"}},{"type":"Feature","id":373,"geometry":{"type":"Point","coordinates":[142.962510317,-37.118061695999984]},"properties":{"objectid":373,"feature_type":"Power Station","feature_subtype":"Renewable","feature_name":"Bulgana  Wind Farm","feature_description":"A facility used for the generation of electrical power for distribution","status":"Operational","owner":"Neoen","primary_fuel_type":"Wind","primary_fuel_type_descriptor":null,"technology_type":"Turbine - Wind","generation_capacity_mw":null,"number_of_units":null,"locality":"BULGANA","state":"VIC","feature_source":"Esri World Imagery","feature_source_date":null,"attribute_source":"Aemo Generator List","attribute_source_date":1554336000000,"spatial_confidence":5,"latitude":-37.118061700000005,"longitude":142.96251032,"created_date":1567468800000,"last_edited_on":1769040000000,"globalid":"{18658B92-E3B7-4474-AACC-05A722269F04}"}},{"type":"Feature","id":375,"geometry":{"type":"Point","coordinates":[144.24075904500012,-37.72811869399993]},"properties":{"objectid":375,"feature_type":"Power Station","feature_subtype":"Renewable","feature_name":"Yaloak South Wind Farm","feature_description":"A facility used for the generation of electrical power for distribution","status":"Operational","owner":"Pacific Hydro","primary_fuel_type":"Wind","primary_fuel_type_descriptor":null,"technology_type":"Turbine - Wind","generation_capacity_mw":131,"number_of_units":null,"locality":"MOUNT WALLACE","state":"VIC","feature_source":"Esri World Imagery","feature_source_date":null,"attribute_source":"Aemo Generator List","attribute_source_date":1554336000000,"spatial_confidence":3,"latitude":-37.728118689999995,"longitude":144.24075905,"created_date":1551916800000,"last_edited_on":1769040000000,"globalid":"{DE370E49-5647-44DA-9F27-EE7232788685}"}},{"type":"Feature","id":376,"geometry":{"type":"Point","coordinates":[143.80195033600012,-38.25867761699993]},"properties":{"objectid":376,"feature_type":"Power Station","feature_subtype":"Renewable","feature_name":"Mt Gellibrand Wind Farm","feature_description":"A facility used for the generation of electrical power for distribution","status":"Operational","owner":"Acciona Energy","primary_fuel_type":"Wind","primary_fuel_type_descriptor":null,"technology_type":"Turbine - Wind","generation_capacity_mw":189,"number_of_units":null,"locality":"OMBERSLEY","state":"VIC","feature_source":"Esri World Imagery","feature_source_date":null,"attribute_source":"Aemo Generator List","attribute_source_date":1554336000000,"spatial_confidence":2,"latitude":-38.25867762,"longitude":143.80195034,"created_date":1547337600000,"last_edited_on":1769040000000,"globalid":"{741BFE35-7B38-4B20-B819-7B3C03BABFA6}"}},{"type":"Feature","id":377,"geometry":{"type":"Point","coordinates":[144.1913097040001,-37.654965843999946]},"properties":{"objectid":377,"feature_type":"Power Station","feature_subtype":"Renewable","feature_name":"Moorabool North Wind Farm","feature_description":"A facility used for the generation of electrical power for distribution","status":"Operational","owner":"Goldwind Australia","primary_fuel_type":"Wind","primary_fuel_type_descriptor":null,"technology_type":"Turbine - Wind","generation_capacity_mw":131,"number_of_units":null,"locality":"BALLAN","state":"VIC","feature_source":"Esri World Imagery","feature_source_date":null,"attribute_source":"Aemo Generator List","attribute_source_date":1554336000000,"spatial_confidence":2,"latitude":-37.654965839999996,"longitude":144.1913097,"created_date":1551916800000,"last_edited_on":1769040000000,"globalid":"{E77E2C4E-9B66-473C-97E3-1C7F57523FF2}"}},{"type":"Feature","id":378,"geometry":{"type":"Point","coordinates":[144.1622025380001,-37.74021929699995]},"properties":{"objectid":378,"feature_type":"Power Station","feature_subtype":"Renewable","feature_name":"Moorabool South Wind Farm","feature_description":"A facility used for the generation of electrical power for distribution","status":"Operational","owner":"Goldwind Australia","primary_fuel_type":"Wind","primary_fuel_type_descriptor":null,"technology_type":"Turbine - Wind","generation_capacity_mw":131,"number_of_units":null,"locality":"BUNGAL","state":"VIC","feature_source":"Esri World Imagery","feature_source_date":null,"attribute_source":"Aemo Generator List","attribute_source_date":1554336000000,"spatial_confidence":2,"latitude":-37.7402193,"longitude":144.16220254,"created_date":1551916800000,"last_edited_on":1769040000000,"globalid":"{57D873A4-FAFE-48CE-9139-FA0B9B4A2522}"}},{"type":"Feature","id":379,"geometry":{"type":"Point","coordinates":[149.8651900330001,-34.431428367999956]},"properties":{"objectid":379,"feature_type":"Power Station","feature_subtype":"Renewable","feature_name":"Taralga Wind Farm","feature_description":"A facility used for the generation of electrical power for distribution","status":"Operational","owner":"State Power Investment Corperation","primary_fuel_type":"Wind","primary_fuel_type_descriptor":null,"technology_type":"Turbine - Wind","generation_capacity_mw":107,"number_of_units":null,"locality":"MYRTLEVILLE","state":"NSW","feature_source":"Esri World Imagery","feature_source_date":null,"attribute_source":"Aemo Generator List","attribute_source_date":1554336000000,"spatial_confidence":5,"latitude":-34.43142837,"longitude":149.86519003,"created_date":1554163200000,"last_edited_on":1769385600000,"globalid":"{DB2891B4-CDB3-433C-9AB5-6DB0B886C432}"}},{"type":"Feature","id":381,"geometry":{"type":"Point","coordinates":[151.55355144100008,-29.764750440999933]},"properties":{"objectid":381,"feature_type":"Power Station","feature_subtype":"Renewable","feature_name":"White Rock Solar Farm","feature_description":"A facility used for the generation of electrical power for distribution","status":"Operational","owner":null,"primary_fuel_type":"Wind","primary_fuel_type_descriptor":null,"technology_type":"Turbine - Wind","generation_capacity_mw":null,"number_of_units":null,"locality":"MATHESON","state":"NSW","feature_source":"Esri World Imagery","feature_source_date":null,"attribute_source":"Aemo Generator List","attribute_source_date":1554336000000,"spatial_confidence":3,"latitude":-29.76475044,"longitude":151.55355144,"created_date":1537056000000,"last_edited_on":1769040000000,"globalid":"{2A6D7BB9-C26C-4BD1-9AE5-6A5043B838E1}"}},{"type":"Feature","id":382,"geometry":{"type":"Point","coordinates":[151.54436224900007,-29.76216964499997]},"properties":{"objectid":382,"feature_type":"Power Station","feature_subtype":"Renewable","feature_name":"White Rock Wind Farm","feature_description":"A facility used for the generation of electrical power for distribution","status":"Operational","owner":"Goldwind","primary_fuel_type":"Wind","primary_fuel_type_descriptor":null,"technology_type":"Turbine - Wind","generation_capacity_mw":null,"number_of_units":null,"locality":"SWAN VALE","state":"NSW","feature_source":"Esri World Imagery","feature_source_date":null,"attribute_source":"Aemo Generator List","attribute_source_date":1554336000000,"spatial_confidence":5,"latitude":-29.76216965,"longitude":151.54436225,"created_date":1537056000000,"last_edited_on":1769040000000,"globalid":"{8263A23C-18A2-4482-9EBF-C63727B2AA0F}"}},{"type":"Feature","id":383,"geometry":{"type":"Point","coordinates":[151.411946101,-29.69971316899995]},"properties":{"objectid":383,"feature_type":"Power Station","feature_subtype":"Renewable","feature_name":"Sapphire Wind Farm","feature_description":"A facility used for the generation of electrical power for distribution","status":"Operational","owner":"Cwp Renewables","primary_fuel_type":"Wind","primary_fuel_type_descriptor":null,"technology_type":"Turbine - Wind","generation_capacity_mw":270,"number_of_units":null,"locality":"KINGSLAND","state":"NSW","feature_source":"Esri World Imagery","feature_source_date":null,"attribute_source":"Aemo Generator List","attribute_source_date":1554336000000,"spatial_confidence":5,"latitude":-29.69971317,"longitude":151.4119461,"created_date":1532131200000,"last_edited_on":1769040000000,"globalid":"{04B6DAE8-6674-4A6C-9D38-6A5C0A26F0B8}"}},{"type":"Feature","id":385,"geometry":{"type":"Point","coordinates":[141.2684835980001,-31.806571390999977]},"properties":{"objectid":385,"feature_type":"Power Station","feature_subtype":"Renewable","feature_name":"Silverton Wind Farm","feature_description":"A facility used for the generation of electrical power for distribution","status":"Operational","owner":null,"primary_fuel_type":"Wind","primary_fuel_type_descriptor":null,"technology_type":"Turbine - Wind","generation_capacity_mw":null,"number_of_units":null,"locality":"BROKEN HILL","state":"NSW","feature_source":"Esri World Imagery","feature_source_date":null,"attribute_source":"Aemo Generator List","attribute_source_date":1554336000000,"spatial_confidence":3,"latitude":-31.80657139,"longitude":141.26848360000002,"created_date":1524960000000,"last_edited_on":1772064000000,"globalid":"{C312B5B0-3D9F-4BAF-831C-4801817F8791}"}},{"type":"Feature","id":389,"geometry":{"type":"Point","coordinates":[142.31819697700007,-36.43324745099994]},"properties":{"objectid":389,"feature_type":"Power Station","feature_subtype":"Renewable","feature_name":"Murra Warra Wind Farm","feature_description":"A facility used for the generation of electrical power for distribution","status":"Operational","owner":"Res Australia","primary_fuel_type":"Wind","primary_fuel_type_descriptor":null,"technology_type":"Turbine - Wind","generation_capacity_mw":429,"number_of_units":null,"locality":"MURRA WARRA","state":"VIC","feature_source":"Esri World Imagery","feature_source_date":null,"attribute_source":"Aemo Generator List","attribute_source_date":1554336000000,"spatial_confidence":3,"latitude":-36.433247449999996,"longitude":142.31819697999998,"created_date":1551225600000,"last_edited_on":1769040000000,"globalid":"{0F7A66A8-31E9-4ACE-838A-3D08CBE7AE0F}"}},{"type":"Feature","id":398,"geometry":{"type":"Point","coordinates":[142.8528704150001,-38.146760678999954]},"properties":{"objectid":398,"feature_type":"Power Station","feature_subtype":"Renewable","feature_name":"Mortlake South Wind Farm","feature_description":"A facility used for the generation of electrical power for distribution","status":"Operational","owner":null,"primary_fuel_type":"Wind","primary_fuel_type_descriptor":null,"technology_type":"Turbine - Wind","generation_capacity_mw":null,"number_of_units":null,"locality":"KOLORA","state":"VIC","feature_source":"Esri World Imagery","feature_source_date":null,"attribute_source":"Open Street Map","attribute_source_date":1721260800000,"spatial_confidence":5,"latitude":-38.14676068,"longitude":142.85287042,"created_date":1692144000000,"last_edited_on":1769040000000,"globalid":"{B1B3FC74-A322-48F0-9037-922D94657F54}"}},{"type":"Feature","id":399,"geometry":{"type":"Point","coordinates":[142.7737812030001,-37.93070993099997]},"properties":{"objectid":399,"feature_type":"Power Station","feature_subtype":"Renewable","feature_name":"Salt Creek Wind Farm","feature_description":"A facility used for the generation of electrical power for distribution","status":"Operational","owner":null,"primary_fuel_type":"Wind","primary_fuel_type_descriptor":null,"technology_type":"Turbine - Wind","generation_capacity_mw":null,"number_of_units":null,"locality":"WOORNDOO","state":"VIC","feature_source":"Esri World Imagery","feature_source_date":null,"attribute_source":"Open Street Map","attribute_source_date":1589587200000,"spatial_confidence":5,"latitude":-37.93070993,"longitude":142.7737812,"created_date":1692144000000,"last_edited_on":1769040000000,"globalid":"{5E48FE17-E48D-4221-B36B-71045108A573}"}},{"type":"Feature","id":400,"geometry":{"type":"Point","coordinates":[149.86601642200003,-26.632052004999935]},"properties":{"objectid":400,"feature_type":"Power Station","feature_subtype":"Renewable","feature_name":"Dulacca Wind Farm","feature_description":"A facility used for the generation of electrical power for distribution","status":"Operational","owner":null,"primary_fuel_type":"Wind","primary_fuel_type_descriptor":null,"technology_type":"Turbine - Wind","generation_capacity_mw":null,"number_of_units":null,"locality":"DRILLHAM","state":"QLD","feature_source":"Esri World Imagery","feature_source_date":null,"attribute_source":"Open Street Map","attribute_source_date":1718064000000,"spatial_confidence":5,"latitude":-26.632052,"longitude":149.86601642000002,"created_date":1691020800000,"last_edited_on":1769040000000,"globalid":"{3413E49F-D3E6-4DBC-88EE-5BB705915ED1}"}},{"type":"Feature","id":402,"geometry":{"type":"Point","coordinates":[143.453547898,-37.88634086899998]},"properties":{"objectid":402,"feature_type":"Power Station","feature_subtype":"Renewable","feature_name":"Berrybank Wind Farm","feature_description":"A facility used for the generation of electrical power for distribution","status":"Operational","owner":null,"primary_fuel_type":"Wind","primary_fuel_type_descriptor":null,"technology_type":"Turbine - Wind","generation_capacity_mw":null,"number_of_units":null,"locality":"WILLOWVALE","state":"VIC","feature_source":"Esri World Imagery","feature_source_date":null,"attribute_source":"Open Street Map","attribute_source_date":1648771200000,"spatial_confidence":5,"latitude":-37.88634087,"longitude":143.4535479,"created_date":1692144000000,"last_edited_on":1769040000000,"globalid":"{B6323B30-2D20-4210-A298-C89F3B557226}"}},{"type":"Feature","id":403,"geometry":{"type":"Point","coordinates":[142.9523131300001,-37.86568882499995]},"properties":{"objectid":403,"feature_type":"Power Station","feature_subtype":"Renewable","feature_name":"Dunndonnell Wind Farm","feature_description":"A facility used for the generation of electrical power for distribution","status":"Operational","owner":null,"primary_fuel_type":"Wind","primary_fuel_type_descriptor":null,"technology_type":"Turbine - Wind","generation_capacity_mw":null,"number_of_units":null,"locality":"DUNDONNELL","state":"VIC","feature_source":"Esri World Imagery","feature_source_date":null,"attribute_source":"Open Street Map","attribute_source_date":1721260800000,"spatial_confidence":5,"latitude":-37.86568882,"longitude":142.95231313000002,"created_date":1692144000000,"last_edited_on":1769040000000,"globalid":"{9774F0A1-E632-48EB-8438-0A82A624CF6C}"}},{"type":"Feature","id":404,"geometry":{"type":"Point","coordinates":[149.0105973320001,-34.76893145399998]},"properties":{"objectid":404,"feature_type":"Power Station","feature_subtype":"Renewable","feature_name":"Rye Park Wind Farm","feature_description":"A facility used for the generation of electrical power for distribution","status":"Operational","owner":null,"primary_fuel_type":"Wind","primary_fuel_type_descriptor":null,"technology_type":"Turbine - Wind","generation_capacity_mw":null,"number_of_units":null,"locality":"BANGO","state":"NSW","feature_source":"Esri World Imagery","feature_source_date":null,"attribute_source":"Open Street Map","attribute_source_date":1682985600000,"spatial_confidence":5,"latitude":-34.768931450000004,"longitude":149.01059733,"created_date":1700179200000,"last_edited_on":1769040000000,"globalid":"{80A98FF6-6638-4EA0-A8CA-D997ECB88340}"}},{"type":"Feature","id":405,"geometry":{"type":"Point","coordinates":[115.47076881800001,-29.943124825999973]},"properties":{"objectid":405,"feature_type":"Power Station","feature_subtype":"Renewable","feature_name":"Warradarge Wind Farm","feature_description":"A facility used for the generation of electrical power for distribution","status":"Operational","owner":null,"primary_fuel_type":"Wind","primary_fuel_type_descriptor":null,"technology_type":"Turbine - Wind","generation_capacity_mw":null,"number_of_units":null,"locality":"WARRADARGE","state":"WA","feature_source":"Esri World Imagery","feature_source_date":null,"attribute_source":"Open Street Map","attribute_source_date":1622851200000,"spatial_confidence":5,"latitude":-29.943124830000002,"longitude":115.47076881999999,"created_date":1697500800000,"last_edited_on":1769040000000,"globalid":"{2227D185-5F68-41D9-AEA6-4AA25D236A1B}"}},{"type":"Feature","id":406,"geometry":{"type":"Point","coordinates":[115.64246685800003,-30.768501560999937]},"properties":{"objectid":406,"feature_type":"Power Station","feature_subtype":"Renewable","feature_name":"Yandin Wind Farm","feature_description":"A facility used for the generation of electrical power for distribution","status":"Operational","owner":null,"primary_fuel_type":"Wind","primary_fuel_type_descriptor":null,"technology_type":"Turbine - Wind","generation_capacity_mw":null,"number_of_units":null,"locality":"DANDARAGAN","state":"WA","feature_source":"Esri World Imagery","feature_source_date":null,"attribute_source":"Esri World Imagery","attribute_source_date":1697760000000,"spatial_confidence":5,"latitude":-30.76850156,"longitude":115.64246686,"created_date":1697760000000,"last_edited_on":1769040000000,"globalid":"{FEE07E3B-FD35-4EE7-AF01-3E0A50595CFB}"}},{"type":"Feature","id":407,"geometry":{"type":"Point","coordinates":[146.72393066100005,-42.14961388399996]},"properties":{"objectid":407,"feature_type":"Power Station","feature_subtype":"Renewable","feature_name":"Cattle Hill Wind Farm","feature_description":"A facility used for the generation of electrical power for distribution","status":"Operational","owner":null,"primary_fuel_type":"Wind","primary_fuel_type_descriptor":null,"technology_type":"Turbine - Wind","generation_capacity_mw":null,"number_of_units":null,"locality":"WADDAMANA","state":"TAS","feature_source":"Esri World Imagery","feature_source_date":null,"attribute_source":"Open Street Map","attribute_source_date":1696032000000,"spatial_confidence":5,"latitude":-42.14961388,"longitude":146.72393065999998,"created_date":1645228800000,"last_edited_on":1769040000000,"globalid":"{3A2A717F-ACC3-4BA3-B056-7791A566C3ED}"}},{"type":"Feature","id":411,"geometry":{"type":"Point","coordinates":[151.47485877000008,-26.733701916999962]},"properties":{"objectid":411,"feature_type":"Power Station","feature_subtype":"Renewable","feature_name":"Coopers Gap","feature_description":"A facility used for the generation of electrical power for distribution","status":"Operational","owner":null,"primary_fuel_type":"Wind","primary_fuel_type_descriptor":null,"technology_type":"Turbine - Wind","generation_capacity_mw":453,"number_of_units":null,"locality":"BOYNESIDE","state":"QLD","feature_source":"Esri World Imagery","feature_source_date":null,"attribute_source":"Esri World Imagery","attribute_source_date":1688947200000,"spatial_confidence":5,"latitude":-26.733701919999998,"longitude":151.47485877,"created_date":1688947200000,"last_edited_on":1769040000000,"globalid":"{BB00CB59-5ABB-4856-92BF-D401DA6F83C8}"}},{"type":"Feature","id":412,"geometry":{"type":"Point","coordinates":[145.26601908800012,-37.09816814499993]},"properties":{"objectid":412,"feature_type":"Power Station","feature_subtype":"Renewable","feature_name":"Cherry Tree","feature_description":"A facility used for the generation of electrical power for distribution","status":"Operational","owner":null,"primary_fuel_type":"Wind","primary_fuel_type_descriptor":null,"technology_type":"Turbine - Wind","generation_capacity_mw":57.6,"number_of_units":null,"locality":"WHITEHEADS CREEK","state":"VIC","feature_source":"Esri World Imagery","feature_source_date":null,"attribute_source":"Esri World Imagery","attribute_source_date":1644710400000,"spatial_confidence":5,"latitude":-37.098168140000006,"longitude":145.26601909,"created_date":1644710400000,"last_edited_on":1769040000000,"globalid":"{CE56A54C-4A6A-456B-A63E-F1CCE945BB55}"}}],"name":"Geoscience Australia Wind Generators 2026"}