{"type":"FeatureCollection","crs":{"type":"name","properties":{"name":"EPSG:7844"}},"features":[{"type":"Feature","id":101,"geometry":{"type":"Point","coordinates":[149.40013515500004,-34.80496878099996]},"properties":{"objectid":101,"feature_type":"Power Station","feature_subtype":"Renewable","feature_name":"Cullerin Range Wind Farm","feature_description":"A facility used for the generation of electrical power for distribution","status":"Operational","owner":"Origin Energy","primary_fuel_type":"Wind","primary_fuel_type_descriptor":null,"technology_type":"Turbine - Wind","generation_capacity_mw":30,"number_of_units":15,"locality":"BREADALBANE","state":"NSW","feature_source":"Esri World Imagery","feature_source_date":null,"attribute_source":"Aemo Generator List","attribute_source_date":1343692800000,"spatial_confidence":5,"latitude":-34.80496878,"longitude":149.40013516000002,"created_date":1380412800000,"last_edited_on":1769040000000,"globalid":"{22B0BB1E-ACE4-4E42-A0F7-D804C6D45749}"}},{"type":"Feature","id":112,"geometry":{"type":"Point","coordinates":[149.19821575000003,-33.62187713499998]},"properties":{"objectid":112,"feature_type":"Power Station","feature_subtype":"Renewable","feature_name":"Blayney Wind Farm","feature_description":"A facility used for the generation of electrical power for distribution","status":"Operational","owner":"Eraring Energy","primary_fuel_type":"Wind","primary_fuel_type_descriptor":null,"technology_type":"Turbine - Wind","generation_capacity_mw":9.9,"number_of_units":15,"locality":"CARCOAR","state":"NSW","feature_source":"Esri World Imagery","feature_source_date":null,"attribute_source":"Aemo Generator List","attribute_source_date":1343692800000,"spatial_confidence":5,"latitude":-33.62187714,"longitude":149.19821575,"created_date":1287532800000,"last_edited_on":1769040000000,"globalid":"{6CAB6A83-0313-4C85-A870-0FB35F63989F}"}},{"type":"Feature","id":113,"geometry":{"type":"Point","coordinates":[149.57161129000008,-35.08604687899998]},"properties":{"objectid":113,"feature_type":"Power Station","feature_subtype":"Renewable","feature_name":"Woodlawn Wind Farm","feature_description":"A facility used for the generation of electrical power for distribution","status":"Operational","owner":"Infigen Energy Pty Ltd","primary_fuel_type":"Wind","primary_fuel_type_descriptor":null,"technology_type":"Turbine - Wind","generation_capacity_mw":48,"number_of_units":23,"locality":"TARAGO","state":"NSW","feature_source":"Esri World Imagery","feature_source_date":null,"attribute_source":"Aemo Generator List","attribute_source_date":1343692800000,"spatial_confidence":3,"latitude":-35.08604688,"longitude":149.57161129,"created_date":1381622400000,"last_edited_on":1769040000000,"globalid":"{5E630EF4-16CD-474B-9329-B5C877CCE423}"}},{"type":"Feature","id":119,"geometry":{"type":"Point","coordinates":[149.38339733100008,-34.69709582899998]},"properties":{"objectid":119,"feature_type":"Power Station","feature_subtype":"Renewable","feature_name":"Gunning","feature_description":"A facility used for the generation of electrical power for distribution","status":"Operational","owner":"Acciona Energy Australia","primary_fuel_type":"Wind","primary_fuel_type_descriptor":null,"technology_type":"Turbine - Wind","generation_capacity_mw":47,"number_of_units":31,"locality":"GURRUNDAH","state":"NSW","feature_source":"Esri World Imagery","feature_source_date":null,"attribute_source":"Aemo Generator List","attribute_source_date":1343692800000,"spatial_confidence":3,"latitude":-34.69709583,"longitude":149.38339732999998,"created_date":1380412800000,"last_edited_on":1769040000000,"globalid":"{B7109182-2746-43A1-AEC9-142D7E063166}"}},{"type":"Feature","id":122,"geometry":{"type":"Point","coordinates":[149.5226430140001,-35.159504020999975]},"properties":{"objectid":122,"feature_type":"Power Station","feature_subtype":"Renewable","feature_name":"Capital Hill Wind Farm","feature_description":"A facility used for the generation of electrical power for distribution","status":"Operational","owner":"Infigen Energy Pty Ltd","primary_fuel_type":"Wind","primary_fuel_type_descriptor":null,"technology_type":"Turbine - Wind","generation_capacity_mw":140,"number_of_units":67,"locality":"TARAGO","state":"NSW","feature_source":"Esri World Imagery","feature_source_date":null,"attribute_source":"Aemo Generator List","attribute_source_date":1343692800000,"spatial_confidence":5,"latitude":-35.15950402,"longitude":149.52264301000002,"created_date":1381622400000,"last_edited_on":1769040000000,"globalid":"{97ED1327-5B45-49CE-8072-295C71016B2A}"}},{"type":"Feature","id":311,"geometry":{"type":"Point","coordinates":[149.12672997200002,-36.57629773599996]},"properties":{"objectid":311,"feature_type":"Power Station","feature_subtype":"Renewable","feature_name":"Boco Rock","feature_description":"A facility used for the generation of electrical power for distribution","status":"Operational","owner":"Boco Rock Wind Farm Pty Ltd","primary_fuel_type":"Wind","primary_fuel_type_descriptor":null,"technology_type":"Turbine - Wind","generation_capacity_mw":113,"number_of_units":null,"locality":"SPRINGFIELD","state":"NSW","feature_source":"Esri World Imagery","feature_source_date":null,"attribute_source":"Aemo Generator List","attribute_source_date":1343692800000,"spatial_confidence":5,"latitude":-36.57629774,"longitude":149.12672997,"created_date":1548374400000,"last_edited_on":1769040000000,"globalid":"{21BD48A6-D859-4621-988E-C2C6398FC8FC}"}},{"type":"Feature","id":312,"geometry":{"type":"Point","coordinates":[148.82924311800002,-34.56490894899997]},"properties":{"objectid":312,"feature_type":"Power Station","feature_subtype":"Renewable","feature_name":"Bango Wind Farm","feature_description":"A facility used for the generation of electrical power for distribution","status":"Operational","owner":"Bango Wind Farm Pty Ltd","primary_fuel_type":"Wind","primary_fuel_type_descriptor":null,"technology_type":"Turbine - Wind","generation_capacity_mw":155,"number_of_units":null,"locality":"KANGIARA","state":"NSW","feature_source":"Esri World Imagery","feature_source_date":null,"attribute_source":"Aemo Generator List","attribute_source_date":1769731200000,"spatial_confidence":5,"latitude":-34.56490895,"longitude":148.82924311999997,"created_date":1351382400000,"last_edited_on":1775088000000,"globalid":"{A11B6F8C-70F4-4FCB-95B9-706D108C8CD4}"}},{"type":"Feature","id":317,"geometry":{"type":"Point","coordinates":[149.09980105300008,-32.41458728099997]},"properties":{"objectid":317,"feature_type":"Power Station","feature_subtype":"Renewable","feature_name":"Bodangora Wind Farm","feature_description":"A facility used for the generation of electrical power for distribution","status":"Operational","owner":"Infigen Energy","primary_fuel_type":"Wind","primary_fuel_type_descriptor":null,"technology_type":"Turbine - Wind","generation_capacity_mw":113,"number_of_units":null,"locality":"BODANGORA","state":"NSW","feature_source":"Esri World Imagery","feature_source_date":null,"attribute_source":"Aemo Generator List","attribute_source_date":1554336000000,"spatial_confidence":5,"latitude":-32.41458728,"longitude":149.09980105,"created_date":1545523200000,"last_edited_on":1769040000000,"globalid":"{788F2A40-2667-4EBB-AC9B-1B762309D8B3}"}},{"type":"Feature","id":343,"geometry":{"type":"Point","coordinates":[149.48412001500003,-34.69036223899997]},"properties":{"objectid":343,"feature_type":"Power Station","feature_subtype":"Renewable","feature_name":"Gullen Range Wind Farm","feature_description":"A facility used for the generation of electrical power for distribution","status":"Operational","owner":"Jingneng","primary_fuel_type":"Wind","primary_fuel_type_descriptor":null,"technology_type":"Turbine - Wind","generation_capacity_mw":166,"number_of_units":73,"locality":"GURRUNDAH","state":"NSW","feature_source":"Esri World Imagery","feature_source_date":null,"attribute_source":"Aemo Generator List","attribute_source_date":1343692800000,"spatial_confidence":5,"latitude":-34.69036224,"longitude":149.48412002,"created_date":1380412800000,"last_edited_on":1769040000000,"globalid":"{D1E9354A-BA0F-45CF-8C5D-7BFBD1D1A6D4}"}},{"type":"Feature","id":349,"geometry":{"type":"Point","coordinates":[149.4597489130001,-34.61490393699995]},"properties":{"objectid":349,"feature_type":"Power Station","feature_subtype":"Renewable","feature_name":"Gullen Range Wind Farm","feature_description":"A facility used for the generation of electrical power for distribution","status":"Operational","owner":"Tianrun Australia","primary_fuel_type":"Wind","primary_fuel_type_descriptor":null,"technology_type":"Turbine - Wind","generation_capacity_mw":165.5,"number_of_units":73,"locality":"BANNISTER","state":"NSW","feature_source":"Esri World Imagery","feature_source_date":null,"attribute_source":"Aemo Generator List","attribute_source_date":1479945600000,"spatial_confidence":3,"latitude":-34.61490394,"longitude":149.45974891,"created_date":1380412800000,"last_edited_on":1769040000000,"globalid":"{468F4387-0102-4C4D-B11B-D01A03462416}"}},{"type":"Feature","id":379,"geometry":{"type":"Point","coordinates":[149.8651900330001,-34.431428367999956]},"properties":{"objectid":379,"feature_type":"Power Station","feature_subtype":"Renewable","feature_name":"Taralga Wind Farm","feature_description":"A facility used for the generation of electrical power for distribution","status":"Operational","owner":"State Power Investment Corperation","primary_fuel_type":"Wind","primary_fuel_type_descriptor":null,"technology_type":"Turbine - Wind","generation_capacity_mw":107,"number_of_units":null,"locality":"MYRTLEVILLE","state":"NSW","feature_source":"Esri World Imagery","feature_source_date":null,"attribute_source":"Aemo Generator List","attribute_source_date":1554336000000,"spatial_confidence":5,"latitude":-34.43142837,"longitude":149.86519003,"created_date":1554163200000,"last_edited_on":1769385600000,"globalid":"{DB2891B4-CDB3-433C-9AB5-6DB0B886C432}"}},{"type":"Feature","id":381,"geometry":{"type":"Point","coordinates":[151.55355144100008,-29.764750440999933]},"properties":{"objectid":381,"feature_type":"Power Station","feature_subtype":"Renewable","feature_name":"White Rock Solar Farm","feature_description":"A facility used for the generation of electrical power for distribution","status":"Operational","owner":null,"primary_fuel_type":"Wind","primary_fuel_type_descriptor":null,"technology_type":"Turbine - Wind","generation_capacity_mw":null,"number_of_units":null,"locality":"MATHESON","state":"NSW","feature_source":"Esri World Imagery","feature_source_date":null,"attribute_source":"Aemo Generator List","attribute_source_date":1554336000000,"spatial_confidence":3,"latitude":-29.76475044,"longitude":151.55355144,"created_date":1537056000000,"last_edited_on":1769040000000,"globalid":"{2A6D7BB9-C26C-4BD1-9AE5-6A5043B838E1}"}},{"type":"Feature","id":382,"geometry":{"type":"Point","coordinates":[151.54436224900007,-29.76216964499997]},"properties":{"objectid":382,"feature_type":"Power Station","feature_subtype":"Renewable","feature_name":"White Rock Wind Farm","feature_description":"A facility used for the generation of electrical power for distribution","status":"Operational","owner":"Goldwind","primary_fuel_type":"Wind","primary_fuel_type_descriptor":null,"technology_type":"Turbine - Wind","generation_capacity_mw":null,"number_of_units":null,"locality":"SWAN VALE","state":"NSW","feature_source":"Esri World Imagery","feature_source_date":null,"attribute_source":"Aemo Generator List","attribute_source_date":1554336000000,"spatial_confidence":5,"latitude":-29.76216965,"longitude":151.54436225,"created_date":1537056000000,"last_edited_on":1769040000000,"globalid":"{8263A23C-18A2-4482-9EBF-C63727B2AA0F}"}},{"type":"Feature","id":383,"geometry":{"type":"Point","coordinates":[151.411946101,-29.69971316899995]},"properties":{"objectid":383,"feature_type":"Power Station","feature_subtype":"Renewable","feature_name":"Sapphire Wind Farm","feature_description":"A facility used for the generation of electrical power for distribution","status":"Operational","owner":"Cwp Renewables","primary_fuel_type":"Wind","primary_fuel_type_descriptor":null,"technology_type":"Turbine - Wind","generation_capacity_mw":270,"number_of_units":null,"locality":"KINGSLAND","state":"NSW","feature_source":"Esri World Imagery","feature_source_date":null,"attribute_source":"Aemo Generator List","attribute_source_date":1554336000000,"spatial_confidence":5,"latitude":-29.69971317,"longitude":151.4119461,"created_date":1532131200000,"last_edited_on":1769040000000,"globalid":"{04B6DAE8-6674-4A6C-9D38-6A5C0A26F0B8}"}},{"type":"Feature","id":385,"geometry":{"type":"Point","coordinates":[141.2684835980001,-31.806571390999977]},"properties":{"objectid":385,"feature_type":"Power Station","feature_subtype":"Renewable","feature_name":"Silverton Wind Farm","feature_description":"A facility used for the generation of electrical power for distribution","status":"Operational","owner":null,"primary_fuel_type":"Wind","primary_fuel_type_descriptor":null,"technology_type":"Turbine - Wind","generation_capacity_mw":null,"number_of_units":null,"locality":"BROKEN HILL","state":"NSW","feature_source":"Esri World Imagery","feature_source_date":null,"attribute_source":"Aemo Generator List","attribute_source_date":1554336000000,"spatial_confidence":3,"latitude":-31.80657139,"longitude":141.26848360000002,"created_date":1524960000000,"last_edited_on":1772064000000,"globalid":"{C312B5B0-3D9F-4BAF-831C-4801817F8791}"}},{"type":"Feature","id":404,"geometry":{"type":"Point","coordinates":[149.0105973320001,-34.76893145399998]},"properties":{"objectid":404,"feature_type":"Power Station","feature_subtype":"Renewable","feature_name":"Rye Park Wind Farm","feature_description":"A facility used for the generation of electrical power for distribution","status":"Operational","owner":null,"primary_fuel_type":"Wind","primary_fuel_type_descriptor":null,"technology_type":"Turbine - Wind","generation_capacity_mw":null,"number_of_units":null,"locality":"BANGO","state":"NSW","feature_source":"Esri World Imagery","feature_source_date":null,"attribute_source":"Open Street Map","attribute_source_date":1682985600000,"spatial_confidence":5,"latitude":-34.768931450000004,"longitude":149.01059733,"created_date":1700179200000,"last_edited_on":1769040000000,"globalid":"{80A98FF6-6638-4EA0-A8CA-D997ECB88340}"}}],"name":"Geoscience Australia Wind Generators 2026 \u2014 NSW"}