{"type":"FeatureCollection","crs":{"type":"name","properties":{"name":"urn:ogc:def:crs:EPSG::4326"}},"crs_statement":"EPSG:4326","geometry_type":"centroid","preliminary_disclaimer":"This shortlist is a preliminary screening output. It indicates where to look next; it is not a site approval, an engineering assessment, or a final recommendation.","analysis_resolution":"~5 km (0.05 degree) analysis grid cell","features":[{"type":"Feature","properties":{"rank":1.0,"cell_id":"S31.186_E151.686","suitability_score":0.9205203606505237,"confidence":"high","centroid_lat":-31.18625,"centroid_lon":151.68625000000003},"geometry":{"type":"Point","coordinates":[151.68625000000003,-31.18625]}},{"type":"Feature","properties":{"rank":2.0,"cell_id":"S32.436_E149.086","suitability_score":0.9197696937823575,"confidence":"high","centroid_lat":-32.43625,"centroid_lon":149.08625000000004},"geometry":{"type":"Point","coordinates":[149.08625000000004,-32.43625]}},{"type":"Feature","properties":{"rank":3.0,"cell_id":"S30.186_E151.636","suitability_score":0.9181371600411556,"confidence":"high","centroid_lat":-30.18625,"centroid_lon":151.63625000000002},"geometry":{"type":"Point","coordinates":[151.63625000000002,-30.18625]}},{"type":"Feature","properties":{"rank":4.0,"cell_id":"S32.436_E149.036","suitability_score":0.9179498613593562,"confidence":"high","centroid_lat":-32.43625,"centroid_lon":149.03625000000002},"geometry":{"type":"Point","coordinates":[149.03625000000002,-32.43625]}},{"type":"Feature","properties":{"rank":5.0,"cell_id":"S32.486_E149.086","suitability_score":0.9170993549990476,"confidence":"high","centroid_lat":-32.48625,"centroid_lon":149.08625000000004},"geometry":{"type":"Point","coordinates":[149.08625000000004,-32.48625]}},{"type":"Feature","properties":{"rank":6.0,"cell_id":"S30.086_E151.736","suitability_score":0.9170115633739897,"confidence":"high","centroid_lat":-30.08625,"centroid_lon":151.73625},"geometry":{"type":"Point","coordinates":[151.73625,-30.08625]}},{"type":"Feature","properties":{"rank":7.0,"cell_id":"S30.086_E151.686","suitability_score":0.9151250247026507,"confidence":"high","centroid_lat":-30.08625,"centroid_lon":151.68625000000003},"geometry":{"type":"Point","coordinates":[151.68625000000003,-30.08625]}},{"type":"Feature","properties":{"rank":8.0,"cell_id":"S31.186_E151.736","suitability_score":0.9135980148136306,"confidence":"high","centroid_lat":-31.18625,"centroid_lon":151.73625},"geometry":{"type":"Point","coordinates":[151.73625,-31.18625]}},{"type":"Feature","properties":{"rank":9.0,"cell_id":"S30.836_E151.586","suitability_score":0.9127981116539308,"confidence":"high","centroid_lat":-30.83625,"centroid_lon":151.58625000000004},"geometry":{"type":"Point","coordinates":[151.58625000000004,-30.83625]}},{"type":"Feature","properties":{"rank":10.0,"cell_id":"S30.836_E151.386","suitability_score":0.9125905717075175,"confidence":"high","centroid_lat":-30.83625,"centroid_lon":151.38625000000002},"geometry":{"type":"Point","coordinates":[151.38625000000002,-30.83625]}},{"type":"Feature","properties":{"rank":11.0,"cell_id":"S32.386_E149.036","suitability_score":0.912050679119168,"confidence":"high","centroid_lat":-32.386250000000004,"centroid_lon":149.03625000000002},"geometry":{"type":"Point","coordinates":[149.03625000000002,-32.386250000000004]}},{"type":"Feature","properties":{"rank":12.0,"cell_id":"S30.286_E151.636","suitability_score":0.9113683452132657,"confidence":"high","centroid_lat":-30.286250000000003,"centroid_lon":151.63625000000002},"geometry":{"type":"Point","coordinates":[151.63625000000002,-30.286250000000003]}},{"type":"Feature","properties":{"rank":13.0,"cell_id":"S30.236_E151.586","suitability_score":0.9111724983878373,"confidence":"high","centroid_lat":-30.236250000000005,"centroid_lon":151.58625000000004},"geometry":{"type":"Point","coordinates":[151.58625000000004,-30.236250000000005]}},{"type":"Feature","properties":{"rank":14.0,"cell_id":"S30.236_E151.836","suitability_score":0.9111632401425537,"confidence":"high","centroid_lat":-30.236250000000005,"centroid_lon":151.83625000000004},"geometry":{"type":"Point","coordinates":[151.83625000000004,-30.236250000000005]}},{"type":"Feature","properties":{"rank":15.0,"cell_id":"S31.136_E151.686","suitability_score":0.910963524334742,"confidence":"high","centroid_lat":-31.136250000000004,"centroid_lon":151.68625000000003},"geometry":{"type":"Point","coordinates":[151.68625000000003,-31.136250000000004]}},{"type":"Feature","properties":{"rank":16.0,"cell_id":"S30.636_E151.586","suitability_score":0.9096280176082561,"confidence":"high","centroid_lat":-30.636250000000004,"centroid_lon":151.58625000000004},"geometry":{"type":"Point","coordinates":[151.58625000000004,-30.636250000000004]}},{"type":"Feature","properties":{"rank":17.0,"cell_id":"S30.036_E151.686","suitability_score":0.909491705596352,"confidence":"high","centroid_lat":-30.036250000000003,"centroid_lon":151.68625000000003},"geometry":{"type":"Point","coordinates":[151.68625000000003,-30.036250000000003]}},{"type":"Feature","properties":{"rank":18.0,"cell_id":"S30.786_E151.586","suitability_score":0.909458375827664,"confidence":"high","centroid_lat":-30.786250000000003,"centroid_lon":151.58625000000004},"geometry":{"type":"Point","coordinates":[151.58625000000004,-30.786250000000003]}},{"type":"Feature","properties":{"rank":19.0,"cell_id":"S31.236_E151.686","suitability_score":0.9084596799799052,"confidence":"high","centroid_lat":-31.236250000000005,"centroid_lon":151.68625000000003},"geometry":{"type":"Point","coordinates":[151.68625000000003,-31.236250000000005]}},{"type":"Feature","properties":{"rank":20.0,"cell_id":"S30.236_E151.786","suitability_score":0.9084515601706606,"confidence":"high","centroid_lat":-30.236250000000005,"centroid_lon":151.78625000000002},"geometry":{"type":"Point","coordinates":[151.78625000000002,-30.236250000000005]}}]}
